address,city,id,name,state,type,x,y,zip,first_appearance,final_appearance,block_fips,tract_fips
35 Crossroad,Waterbury,16.0,Alchemist Brewery,VT,MicroBrewery,-72.743326,44.350617,05753,2013,2013,500239543002092,50023954300
20 City Blvd. W.,Orange  ,16.0,Alcatraz Brewing Company ,CA,BrewPub,-117.89281732,33.7807446151,92868,2006,2013,060590761024003,06059076102
50 Industrial Way,Portland,19.0,Allagash Brewing Co.,ME,MicroBrewery,-70.31822,43.702764,04103,2013,2015,230050021022013,23005002102
2531 N. 12th St. ,Grand Junction,19.0,Ale House Brewery & Pub,CO,BrewPub,-108.552601287,39.0909064592,81501,2006,2015,080770005001000,08077000500
2521 Atlantic Highway,Lincolnville,32.0,Andrew's Brewpub @ Lobster Pound,ME,BrewPub,-69.007956,44.283085,04849,2015,2015,230270440004059,23027044000
1705 Mariposa St. ,San Francisco,32.0,Anchor Brewing Company ,CA,MicroBrewery,-122.400513907,37.7635721126,94107,2006,2015,060750227041012,06075022704
4975 High St.,Lincolnville,32.0,Andrew's Brewing Co.,ME,MicroBrewery,-69.158749,44.28351,04849,2009,2014,230139703001003,23013970300
3721 Market St.,Camp Hill,35.0,Appalachian Brewing Co.,PA,BrewPub,-76.9457,40.2389,17011,2007,2015,420410113042030,42041011304
833 W. Torrance Blvd. ,Torrance,35.0,Angel City Brewing Co.,CA,MicroBrewery,-118.288841045,33.8421570365,90502,2006,2010,060375435021017,06037543502
720 Main St.,Frisco,49.0,Backcountry Brewery,CO,BrewPub,-106.0940619,39.576458,80443,2012,2015,081170003004008,08117000300
322 Moody St.,Waltham,49.0,Atlantic Coast Brewing/Tremont Ale,MA,MicroBrewery,-71.236864392,42.3706535725,2453,2006,2006,250173685001006,25017368500
71-800 Highway 111,Rancho Mirage,55.0,Babe's BBQ Grill & Brewhouse,CA,BrewPub,-116.411723248,33.7408194531,92270,2006,2015,060650451034012,06065045103
8 Mount Desert St.,Bar Harbor,55.0,Bar Harbor Brewing Co.,ME,MicroBrewery,-68.204816,44.387343,04609,2009,2015,230099659002003,23009965900
1918 West End Ave. ,Nashville,143.0,Blackstone Restaurant & Brewery ,TN,BrewPub,-86.79785951,36.1521969658,37203,2009,2015,470370195002104,47037019500
925 Blossom Hill Rd. ,San Jose,143.0,BJ's Restaurant and Brewery,CA,BrewPub,-121.861326244,37.2502811886,95123,2006,2015,060855120522007,06085512052
10840 W. Charleston,Las Vegas,147.0,BJ's Restaurant and Brewery,NV,BrewPub,-115.332118982,36.1589329356,89135,2006,2007,320030058431009,32003005843
3321 Dill Smith Dr.,Fredericksburg,147.0,Blue & Gray Brewing Co.,VA,MicroBrewery,-77.4475968431,38.2807185376,22408,2009,2009,511770202011015,51177020201
3300 Dill Smith Dr.,Fredericksburg,147.0,Blue & Gray Brewing Co.,VA,MicroBrewery,-77.446589,38.280399,22408,2010,2015,511770202011018,51177020201
"660 S. 4th St., Theatre Sq.",Louisville,156.0,Bluegrass Brewing Co.,KY,BrewHouse,-85.7506,38.2541,40202,2008,2015,211110049001083,21111004900
636 E. Main St.,Louisville,156.0,Bluegrass Brewing Co.,KY,MicroBrewery,-85.741058,38.25485,40207,2008,2015,211110059001035,21111005900
94 E. Fort Union Blvd. (7200 South),Midvale,158.0,Bohemian Brewery & Grill ,UT,BrewPub,-111.887610642,40.6201129147,84047,2010,2015,490351125032002,49035112503
380 Coal St.,Wilkes-Barre,158.0,Black Rock Brewing Co.,PA,BrewPub,-75.8658550324,41.2376227688,18702,2006,2006,420792010002004,42079201000
417 SW 37th St.,Topeka,164.0,Blind Tiger,KS,BrewPub,-95.6842426365,39.0005629337,66605,2006,2015,201770029003010,20177002900
495 Upper Cornelia St.,Plattsburgh,164.0,Bootlegger's Pub & Brewery,NY,BrewPub,-73.45327,44.69952,12901,2007,2007,360191009004015,36019100900
678 Roosevelt Trail,Naples,178.0,Bray's Brewpub & Eatery,ME,BrewPub,-70.600359,43.970659,04064,2013,2014,230050140002046,23005014000
2100 S. Casino Dr.,Laughlin,178.0,Boiler Room Brewpub,NV,BrewPub,-114.574703337,35.1587356788,89029,2006,2015,320030057022001,32003005702
1604 S. Cascade Ave.,Colorado Springs,206.0,Bristol Brewing Co.,CO,MicroBrewery,-104.826329,38.810392,80905,2014,2015,080410030001020,08041003000
1200 Ala Moana Blvd.,Honolulu,206.0,Brew Moon Restaurant & Microbrewery,HI,BrewPub,-157.849610431,21.2917124711,96814,2006,2014,150030037002004,15003003700
23 Commerce St.,Mineral Point,216.0,"Brewery Creek Inn, Restaurant & Brewery",WI,BrewPub,-90.1771499952,42.8570747173,53565,2006,2015,550499506001016,55049950600
15315 Madison Ave.,Lakewood,216.0,Buckeye Beer Engine,OH,BrewPub,-81.803817,41.47722,44107,2008,2015,390351612002003,39035161200
231 W. 4th St.,Williamsport,223.0,Bullfrog Brewery,PA,BrewPub,-77.005653,41.240488,17701,2012,2015,420810006003044,42081000600
67 W. Main St.,Patchogue,223.0,Brickhouse Brewery & Restaurant,NY,BrewPub,-73.01679546,40.765859533,11772,2006,2015,361031589003022,36103158900
840 E. 65th St. ,Indianapolis,228.0,Broad Ripple Brew Pub,IN,BrewPub,-86.1431205728,39.8733770337,46220,2006,2015,180973207001050,18097320700
1415 W Elizabeth St,Fort Collins,228.0,C.B. & Potts Restaurant & Brewery,CO,BrewPub,-105.102496,40.574242,80521,2011,2015,080690005041001,08069000504
1441 E. Horsetooth Rd.,Fort Collins,231.0,C.B. & Potts Restaurant & Brewery,CO,BrewHouse,-105.051246,40.537622,80525,2011,2015,080690010081000,08069001008
401 E. Main St. ,Louisville,231.0,Browning's Brewery ,KY,BrewPub,-85.7457810231,38.2555642071,40202,2006,2015,211110049001053,21111004900
1011 Parkview Ave.,Redding,240.0,California Brewing Co.,CA,MicroBrewery,-122.384651,40.572634,96001,2010,2012,060890104001013,06089010400
5310 Doberman Lane,Anderson,240.0,California Brewing Co.,CA,MicroBrewery,-122.392923,40.4411,96073,2009,2009,060890123021004,06089012302
11 Rogers St.,Gloucester,247.0,Cape Ann Brewing Co.,MA,BrewPub,-70.6652468,42.6114111,01930,2011,2015,250092215002003,25009221500
4700 Cherry Creek Dr. S. ,Denver,247.0,Bull & Bush Pub & Brewery ,CO,BrewPub,-104.932783435,39.7040243264,80222,2006,2015,080050049522010,08005004952
4317 Native Stone Rd.,Jefferson City,248.0,Bull Rock Brewery,MO,BrewPub,-92.3376181793,38.6606201687,65109,2006,2014,290510206001047,29051020600
1336 Phinney's Lane,Hyannis,248.0,Cape Cod Beer,MA,MicroBrewery,-70.3122,41.6778,02601,2007,2015,250010153001105,25001015300
212 S. Green St.,Morganton,264.0,Catawba Valley Brewing Co.,NC,MicroBrewery,-81.686245,35.74522,28655,2008,2015,370230206003040,37023020600
6515 Kingston Pike,Knoxville,264.0,Calhoun's BBQ & Brew,TN,BrewPub,-84.0100601601,35.9319986029,37919,2006,2015,470930044042003,47093004404
8111 Mira Mesa Blvd. ,San Diego,268.0,Callahan's Pub & Brewery,CA,BrewPub,-117.148073143,32.9126645657,92126,2006,2015,060730083492005,06073008349
108 W. 9th St.,Marshfield,268.0,Central Waters Brew Pub,WI,BrewPub,-90.1789,44.6597,54449,2007,2015,551410106005040,55141010600
202 Fremont St.,Las Vegas,273.0,Chicago Brewing Co. @ Four Queens Hotel,NV,BrewPub,-115.144035,36.170345,89101,2011,2015,320030007002000,32003000700
27 Commercial St. ,Gloucester,273.0,Cape Ann Brewing Company ,MA,MicroBrewery,-70.6662438136,42.6103421195,1930,2006,2010,250092215002003,25009221500
102 W. Main St.,Norman,283.0,Coach's Restaurant & Brewery,OK,BrewPub,-97.4438969478,35.2204208382,73069,2011,2014,400272001001033,40027200100
460 W. Franklin St.,Chapel Hill,283.0,Carolina Brewery,NC,BrewPub,-79.0612182036,35.9109435216,27516,2006,2015,371350117001004,37135011700
110 W. Main St.,Norman,283.0,"Brewhouse, The",OK,BrewPub,-97.4440095,35.2206203,73069,2015,2015,400272001001033,40027200100
184 Glen St.,Glens Falls,320.0,Davidson Bros. Restaurant & Brewery,NY,BrewPub,-73.6453798633,43.3100056704,12801,2009,2015,361130702001000,36113070200
525 Short St. ,Columbus,320.0,Columbus Brewing Co. Restaurant,OH,BrewPub,-83.0036013487,39.9506244441,43215,2006,2015,390490052002086,39049005200
935 Washington St.,San Carlos,333.0,Devil's Canyon Brewing Co.,CA,MicroBrewery,-122.24379,37.498523,94070,2014,2015,060816091002033,06081609100
1020 E. Main St.,Reedsburg,333.0,Corner Pub,WI,BrewPub,-89.9961725434,43.5321285252,53959,2006,2015,551110010022045,55111001002
101 N. Railroad St.,Shenandoah,365.0,Depot Deli & Lounge,IA,BrewPub,-95.3767365274,40.7648551799,51601,2006,2015,191454903002001,19145490300
147 Julius St.,Pittsburgh,365.0,East End Brewing Co.,PA,Brewery,-79.9114651,40.4591002,15206,2015,2015,420031208002026,42003120800
5718 S. Franklin St.,Michigan City,400.0,Duneland Brewhouse,IN,BrewPub,-86.8937688409,41.6693110501,46360,2006,2006,180910414002006,18091041400
545 Downtown Plaza,Sacramento,400.0,River City Brewing Co.,CA,BrewPub,-121.500148,38.580925,95814,2008,2015,060670007001030,06067000700
515 Jefferson St. SE,Olympia,410.0,Fish Tale Brew Pub,WA,BrewPub,-122.896823376,47.0441540843,98501,2007,2015,530670101001057,53067010100
57 S. Main St.,Moab,410.0,Eddie McStiff's Restaurant & MicroBrewery,UT,BrewPub,-109.550604691,38.572510523,84532,2006,2014,490190002004006,49019000200
200 Imperial Blvd.,Cape Canaveral,415.0,Florida Beer Co.,FL,Brewery,-80.609735,28.399392,32920,2015,2015,120090686011023,12009068601
6645 Mill Rd.,Somerset,415.0,El Dorado Brewing Co.,CA,MicroBrewery,-120.560895366,38.578221761,95684,2006,2007,060170314023160,06017031402
900 Kennedy Blvd.,Somerdale,419.0,Flying Fish Brewing Co.,NJ,MicroBrewery,-75.021258,39.854207,08083,2013,2015,340076074021000,34007607402
200 Review Alley,Bisbee,419.0,Old Bisbee Brewing Co.,AZ,MicroBrewery,-109.913564,31.442908,85603,2014,2015,040030010002000,04003001000
1020 E. Lincoln Ave.,Fort Collins,423.0,Fort Collins Brewery,CO,BrewPub,-105.058459,40.588593,80524,2011,2015,080690013061076,08069001306
8308 Main St. ,Ellicott City,423.0,Ellicott Mills Brewing Co.,MD,BrewPub,-76.7992996439,39.2681267615,21043,2006,2015,240276028001004,24027602800
1501 Arboretum Dr.,Oshkosh,434.0,Fox River Brewing @ Fratello's Restaurant,WI,BrewPub,-88.5619488942,44.0342608701,54901,2010,2015,551390008001005,55139000800
110 N. Brockway St.,Palatine,434.0,Emmett's Tavern and Brewing Co.,IL,BrewPub,-88.0463547686,42.1130824965,60067,2006,2015,170318037011015,17031803701
5200 Denver Ave S.,Seattle,452.0,Georgetown Brewing Co.,WA,MicroBrewery,-122.326707,47.555477,98108,2013,2015,530330093003167,53033009300
610 Main St.,Rapid City,452.0,Firehouse Brewing Co.,SD,BrewPub,-103.227103939,44.0810908355,57701,2006,2015,461030102002006,46103010200
9921 US Highway 34,Grand Lake,486.0,Grand Lake Brewing Co.,CO,BrewPub,-105.878387,40.193954,80447,2013,2013,080490002012316,08049000201
5610 Yukon St.,Arvada,486.0,Grand Lake Brewing Tavern,CO,BrewHouse,-105.0825454,39.7992651,80002,2015,2015,080590104051007,08059010405
501 W. Water St.,Appleton,486.0,Fratello's Riverfront Restaurant,WI,BrewPub,-88.4091666889,44.257013327,54911,2006,2014,550870110006005,55087011000
2442 Main St.,Lake Placid,499.0,"Great Adirondack Brewing, Steak & Seafood Co.",NY,BrewPub,-73.985134,44.290256,12946,2012,2015,360319605983023,36031960598
307 SW Montgomery St. ,Portland,499.0,Full Sail at Riverplace ,OR,BrewPub,-122.672922324,45.5093829084,97201,2006,2015,410510057003001,41051005700
15 S. Orange Ave.,S. Orange,503.0,Gaslight Brewery & Restaurant,NJ,BrewPub,-74.2595521092,40.7461877261,7079,2006,2015,340130193001006,34013019300
100 S. Broadway,Belgrade,503.0,Outlaw Brewing @ Bar 3 Bar-B-Q,MT,BrewPub,-111.178327,45.775047,59714,2013,2015,300310001033013,30031000103
1077 Darrington Dr.,Cary,517.0,Greenshields Brewery & Pub,NC,BrewPub,-78.8165,35.7997,27513,2007,2007,371830535232007,37183053523
920 12th St. ,Golden,517.0,Golden City Brewery ,CO,MicroBrewery,-105.222727768,39.7548326952,80401,2006,2015,080590100002007,08059010000
640 Emerson St. ,Palo Alto,523.0,Gordon Biersch Brewery Restaurant ,CA,BrewPub,-122.161308935,37.4433710858,94301,2006,2015,060855113022016,06085511302
105 S. 2nd St.,Mt. Horeb,523.0,Grumpy Troll Restaurant and Brewery,WI,BrewPub,-89.7382625935,43.0082986813,53572,2007,2015,550250128003005,55025012800
61 SE Yamhill St.,Portland,525.0,Hair of the Dog Brewing Co.,OR,BrewPub,-122.665545,45.515911,97214,2012,2015,410510011011052,41051001101
5010 Mission Center Rd. ,San Diego,525.0,Gordon Biersch Brewery Restaurant ,CA,BrewPub,-117.153543231,32.7670268558,92108,2006,2015,060730093042044,06073009304
226 Lockwood St.,Covington,547.0,Heiner Brau,LA,MicroBrewery,-90.0970688,30.4776004,70434,2010,2012,221030405011190,22103040501
226 E. Lockwood St.,Covington,547.0,Covington Brewhouse,LA,MicroBrewery,-90.0970688,30.4776004,70434,2013,2015,221030405011190,22103040501
12801 University Ave. SE ,Clive,547.0,Granite City Food & Brewery ,IA,BrewPub,-93.7944933937,41.6005270516,50325,2006,2015,191530112032012,19153011203
4225 SE 182nd St.,Gresham,558.0,Highland Pub & Brewery ,OR,BrewPub,-122.47551498,45.4919870154,97030,2010,2015,410510098031007,41051009803
35905 Utica Rd.,Clinton Township,558.0,Great Baraboo Brewing Co. & Restaurant,MI,BrewPub,-82.965230029,42.5601069558,48035,2006,2015,260992415001012,26099241500
1285 6th Ave. (Avenue of the Americas),New York,607.0,Heartland Brewery at Radio City,NY,BrewPub,-73.9801535539,40.7608980925,10019,2006,2013,360610131001002,36061013100
2944 SE Powell Blvd.,Portland,607.0,HopWorks Urban Brewery,OR,BrewPub,-122.635093,45.497078,97202,2008,2015,410510009022005,41051000902
195 Arnold Rd.,Fiskdale,619.0,Hyland Orchard & Pioneer Brewing,MA,MicroBrewery,-72.1086448461,42.1387650823,01518,2011,2015,250277581022049,25027758102
195 Arnold Rd.,Sturbridge,619.0,Hyland Orchard & Brewery / Pioneer Brewing,MA,MicroBrewery,-72.1086448461,42.1387650823,01701,2008,2010,250277581022049,25027758102
12111 Montwood Dr.,El Paso,658.0,Jaxon's Restaurant & Brewing Co.,TX,BrewHouse,-106.273,31.7607,79936,2007,2010,481410043191018,48141004319
1780 Wells Rd. ,Orange Park,658.0,Hops Restaurant and Brewery ,FL,BrewPub,-81.7311248449,30.1856402723,32073,2006,2008,120190303041039,12019030304
2319 Bishop Circle E.,Dexter,671.0,Jolly Pumpkin Artisan Ales & null Taphouse,MI,BrewPub,-83.879212,42.323727,48130,2015,2015,261614540002027,26161454000
2 Restaurant Park Dr. ,Owings Mills,671.0,Hops Restaurant and Brewery ,MD,BrewPub,-76.792164296,39.4002730385,21117,2006,2008,240054025093003,24005402509
1771 US Route 201,The Forks,691.0,Kennebec River Pub & Brewery,ME,BrewPub,-69.9873733521,45.2142733155,04985,2012,2015,230259653023134,23025965302
4959 N. OConnor Blvd,Irving,691.0,Humperdink's Big Horn Brewing Co.,TX,BrewPub,-96.9468208265,32.8661190803,75062,2006,2006,481130143121015,48113014312
405 Hay St.,Fayetteville,697.0,Huske Hardware House Brewing Co.,NC,BrewPub,-78.882747938,35.0539247871,28301,2006,2015,370510038002031,37051003800
117 Lower Mill Bay Rd.,Kodiak,697.0,Kodiak Island Brewing Co.,AK,MicroBrewery,-152.406738,57.789433,99615,2013,2015,021500004001011,02150000400
106 Main St.,Littleton,729.0,Italian Oasis Restaurant & Brewery,NH,BrewPub,-71.7739327891,44.3070905689,3561,2006,2015,330099601003007,33009960100
210 N 7th St.,Lincoln,729.0,Lazlo's Brewery & Grill,NE,BrewHouse,-96.710796,40.81496,68508,2008,2015,311090005001044,31109000500
201 E. Custer,Laramie,747.0,Library Sports Grille & Brewery,WY,BrewPub,-105.594995,41.309195,82070,2015,2015,560019634001039,56001963400
1622 E. Grand Ave.,Laramie,747.0,Library Sports Grille & Brewery,WY,BrewPub,-105.575758963,41.3098648095,82070,2009,2013,560019636003001,56001963600
12581 Dallas Lane (off M Highway),Cabool,754.0,Little Yeoman Brewery,MO,MicroBrewery,-92.13624,37.1748165147,65689,2010,2014,292154804001175,29215480400
Dallas Lane (off M Highway),Cabool,754.0,Little Yeoman Brewery,MO,MicroBrewery,-92.13624,37.1748165147,65689,2008,2009,292154804001175,29215480400
77 NE 4th St.,Gresham,779.0,4th Street Brewing,OR,BrewPub,-122.430017,45.500512,97030,2009,2015,410510100012019,41051010001
301 Whitehead St.,Key West,779.0,Kelly's Caribbean Bar Grill & Brewery,FL,BrewPub,-81.8055175379,24.5571969646,33040,2006,2015,120879725001088,12087972500
75-5629 Kuakini Hwy,Kailua Kona,790.0,Kona Brewing Co.,HI,BrewPub,-155.996034637,19.6420690679,96740,2006,2015,150010216015035,15001021601
1111 N.W. Ballard Way,Seattle,790.0,Maritime Pacific Brewing's Jolly Roger Taproom,WA,BrewPub,-122.371713,47.662702,98107,2011,2015,530330047002053,53033004700
779 Anita St. #A,Chula Vista,796.0,Mission Brewery,CA,MicroBrewery,-117.086911,32.598414,91911,2009,2010,060730132051006,06073013205
1441 L St.,San Diego,796.0,Mission Brewery,CA,MicroBrewery,-117.1519306,32.7074347,92101,2011,2015,060730051002019,06073005100
4353 La Jolla Village Dr.,San Diego,796.0,La Jolla Brewery,CA,BrewPub,-117.21218387,32.8733757435,92122,2006,2008,060730083391063,06073008339
1252 Airport Park Blvd.,Ukiah,830.0,Mendocino Brewing Alehouse,CA,BrewHouse,-123.199264,39.128883,95482,2012,2015,060450116003019,06045011600
875 Heritage Rd.,DePere,830.0,Legends Brewhouse & Eatery,WI,BrewPub,-88.0587375695,44.4280919329,54115,2006,2015,550090103003032,55009010300
8111 Dimond Hook Dr.,Anchorage,837.0,Midnight Sun Brewing Co.,AK,MicroBrewery,-149.844593,61.147199,99507,2009,2015,020200026013007,02020002601
401 Cross St.,Lexington,837.0,Lexington Brewing Co.,KY,MicroBrewery,-84.508757286,38.0499826603,40508,2006,2015,210670009001010,21067000900
102 Eden St.,Bar Harbor,881.0,Maine Coast Brewing Co./Jack Russell Brewpub,ME,BrewPub,-68.231039725,44.3999571523,4609,2006,2015,230099659004007,23009965900
1620 NW 23rd  Ave. ,Portland,881.0,Lompoc Tavern,OR,BrewPub,-122.698759,45.534336,97210,2014,2015,410510049001005,41051004900
3578 Brewery Lane,Florence,885.0,Nicolet Brewing Co.,WI,BrewPub,-88.292191,45.889953,54121,2011,2013,550371901003015,55037190100
124 Manhattan Beach Blvd. ,Manhattan Beach,885.0,Manhattan Beach Brewing Company ,CA,BrewPub,-118.411289059,33.8841405466,90266,2006,2010,060376209041004,06037620904
1003 E. Trent Ave.,Spokane,896.0,No-Li Brewhouse,WA,BrewPub,-117.394954495,47.6619270615,99202,2013,2015,530630025003030,53063002500
185 Main St. ,Nashua,896.0,Martha's Exchange Restaurant & Brewing Co.,NH,BrewPub,-71.4652508196,42.7602039011,3060,2006,2015,330110107001013,33011010700
223 N. Water St. ,Milwaukee,946.0,Milwaukee Ale House ,WI,BrewPub,-87.9096849903,43.0327497217,53202,2006,2015,550791874001055,55079187400
3100 Leeman Ferry Rd. SW,Huntsville,946.0,Olde Towne Brewing Co.,AL,MicroBrewery,-86.592012,34.698243,35801,2009,2011,010890025012014,01089002501
213 Water St.,Block Island,957.0,Mohegan Caf√© & Brewery,RI,BrewPub,-71.5583131259,41.1726345182,2807,2006,2015,440090415001078,44009041500
2235 North Atherton St.,State College,957.0,Otto's Pub & Brewery,PA,BrewPub,-77.9124427,40.8110971,16803,2011,2015,420270113001000,42027011300
1401 Saint Andrew St.,La Crosse,973.0,Pearl Street Brewery,WI,MicroBrewery,-91.236686,43.833733,54603,2009,2015,550630002001025,55063000200
506 W. Broadway,Mt. Pleasant,973.0,Mountain Town Station,MI,BrewPub,-84.7823953629,43.6042385612,48858,2006,2015,260739405001002,26073940500
2920 Newport Blvd. ,Newport Beach,996.0,Newport Beach Brewing Company ,CA,BrewPub,-117.929686799,33.6142169027,92663,2006,2015,060590635001025,06059063500
56 Market St.,Portsmouth,996.0,Portsmouth Brewery,NH,BrewPub,-70.75749,43.077991,03801,2013,2015,330150691001009,33015069100
14740 NW Cornell Rd. ,Portland,1017.0,Oak Hills Brewpub,OR,BrewPub,-122.826757105,45.5307463439,97229,2006,2015,410670315071020,41067031507
701 Galveston Ave.,Fort Worth,1017.0,Rahr & Sons Brewery,TX,MicroBrewery,-97.3274,32.7372,76104,2007,2015,484391236001064,48439123600
9520 W. Higgins Rd.,Rosemont,1021.0,Ram Restaurant & Brewery,IL,BrewPub,-87.8630636949,41.9926432255,60018,2007,2015,170317707001001,17031770700
3800 Oceanic Dr.,Oceanside,1021.0,Oceanside Ale Works,CA,MicroBrewery,-117.304844856,33.2058382094,92056,2006,2010,060730185131030,06073018513
103 35th Ave. SE,Puyallup,1028.0,Ram Restaurant & Brewery,WA,BrewHouse,-122.292517974,47.1578977912,98374,2011,2015,530530712073011,53053071207
1500 E. Village Way,Orange,1028.0,Oggi's Pizza and Brewing Co.,CA,BrewPub,-117.83851862,33.8283497964,92865,2006,2015,060590762083000,06059076208
2650 University Village,Seattle,1029.0,Ram Restaurant & Brewery,WA,BrewHouse,-122.299387,47.663431,98105,2009,2015,530330043011012,53033004301
8763 E. Bell Rd.,Scottsdale,1029.0,Oggi's Pizza and Brewing Co.,AZ,BrewPub,-111.892962456,33.6399724114,85260,2006,2009,040132168451022,04013216845
3308 3rd St. N.,St. Cloud,1041.0,O'Hara's Brewpub & Restaurant,MN,BrewPub,-94.1985560757,45.5584840112,56303,2006,2008,271450006012009,27145000601
8149 Honeygo Blvd. ,White Marsh,1041.0,Red Brick Station Restaurant & Brewpub,MD,BrewPub,-76.464152,39.372018,21236,2008,2015,240054406001097,24005440600
400 Water St. ,Rochester,1065.0,Rochester Mills Beer Co.,MI,BrewPub,-83.131551,42.680928,48308,2014,2015,261251912004018,26125191200
735 E Center St. ,Milwaukee,1065.0,Onopa Brewing Company ,WI,BrewPub,-87.9025247142,43.0673555136,53212,2006,2015,550790080002001,55079008000
206 SW Morrison St.,Portland,1090.0,Rock Bottom Restaurant & Brewery ,OR,BrewPub,-122.67473,45.518023,97204,2012,2015,410510106003051,41051010600
289 Huger St. ,Charleston,1090.0,Palmetto Brewing Company ,SC,MicroBrewery,-79.9457336545,32.8011606299,29403,2006,2015,450190053002003,45019005300
76 Pearl St. ,Buffalo,1098.0,Pearl Street Grill & Brewery ,NY,BrewPub,-78.8770966345,42.8808739496,14202,2006,2015,360290165001097,36029016500
5030 208th St. SW Ste. A,Lynnwood,1098.0,Ellersick Brewing Co.,WA,BrewPub,-122.3009,47.8103,98036,2007,2015,530610514001010,53061051400
Angel Creek Ranch on SR-232,Clover Valley,1122.0,Ruby Mountain Brewing Co.,NV,MicroBrewery,-114.993124008,41.0689175763,89835,2008,2015,320079502001152,32007950200
5775 Lower York Rd.,Lahaska,1122.0,Porterhouse Brewpub & Restaurant,PA,BrewPub,-75.0331270851,40.3462280255,18931,2006,2012,420171045022001,42017104502
27 Fire Place,Santa Fe,1144.0,Santa Fe Brewing Co. Pub & Grill,NM,BrewPub,-106.0491,35.5975,87508,2007,2012,350490106011107,35049010601
35 Fire Place,Santa Fe,1144.0,Santa Fe Brewing Co. Pub & Grill,NM,BrewPub,-106.048908,35.595822,87508,2013,2015,350490106011116,35049010601
207 Atlantic Blvd.,Atlantic Beach,1144.0,Ragtime Tavern & Seafood Grill,FL,BrewPub,-81.3961638005,30.324583184,32233,2006,2015,120310140011011,12031014001
201 Southborough Dr.,Scarborough,1159.0,Sebago Brewing Co.,ME,BrewHouse,-70.342834,43.628045,4074,2009,2015,230050173011004,23005017301
143 Route 59,Hillburn,1159.0,Ramapo Valley Brewery,NY,BrewPub,-74.1465568542,41.1150958166,10931,2006,2015,360870119011000,36087011901
225 Girard St.,Durango,1188.0,Ska Brewing Co.,CO,MicroBrewery,-107.874903,37.239474,81301,2010,2015,080679711001113,08067971100
1214 E. Cary St.,Richmond,1188.0,Richbrau Brewing Co. & Restaurant,VA,BrewPub,-77.4341082006,37.535735779,23219,2006,2010,517600305001091,51760030500
1400 Main St.,Wheeling,1193.0,River City Aleworks,WV,BrewPub,-80.7229274382,40.0654296108,26003,2006,2006,540690027001039,54069002700
520 Kimberton Rd.,Phoenixville,1193.0,Sly Fox Brewhouse & Eatery,PA,BrewPub,-75.54713,40.129636,19460,2013,2015,420293010004003,42029301000
331 Circle of Progress Dr.,Pottstown,1194.0,Sly Fox Brewery,PA,MicroBrewery,-75.667817,40.265471,19464,2013,2015,420912090002000,42091209000
835 Museum Dr. ,Jacksonville,1194.0,River City Brewing Company ,FL,BrewPub,-97.3273172313,37.6870548891,32207,2006,2015,201730043002040,20173004300
1012 N. California St.,Socorro,1205.0,Socorro Springs Brewing Co.,NM,BrewPub,-106.892874241,34.0690315446,87801,2007,2015,350539783031070,35053978303
3242 Peachtree Rd.,Atlanta,1205.0,Rock Bottom (Big River Brewing),GA,BrewPub,-84.3719528724,33.8432002821,30305,2006,2006,131210096031000,13121009603
7900 Norfolk Ave. ,Bethesda,1223.0,Rock Bottom Restaurant & Brewery ,MD,BrewPub,-77.0974891072,38.9886132916,20814,2006,2015,240317048062006,24031704806
305 S. Market Ave.,Springfield,1223.0,Springfield Brewing Co.,MO,BrewPub,-93.295487,37.207681,65806,2014,2015,290770001001030,29077000100
3105 St. Paul St. ,Baltimore,1243.0,Rocky Run Tap & Grill ,MD,BrewPub,-76.615607088,39.3260911931,21218,2006,2010,245101202024003,24510120202
23 Rice St.,Portland,1243.0,Stone Coast Brewing Co.,ME,BrewPub,-70.3058,43.7103,04103,2007,2008,230050021021005,23005002102
206 Rome St.,Carrollton,1253.0,Rome Street Tavern Grill,GA,BrewPub,-85.0750015802,33.5811028394,30117,2006,2008,130459106003032,13045910600
29 Sunday River Rd.,Bethel,1253.0,Sunday River Brewing Co.,ME,BrewPub,-70.8090205,44.4467218,04345,2012,2015,230179659001029,23017965900
2775 Lebanon Rd.,Manheim,1255.0,Swashbuckler BrewPub & Eaterie,PA,BrewPub,-76.431513,40.228355,17545,2014,2015,420710105011025,42071010501
1520 SE 7th Ave.,Portland,1255.0,Root's Brewing Co.,OR,BrewPub,-122.658124413,45.5119625853,97214,2006,2010,410510011021008,41051001102
SR-232,Clover Valley,1264.0,Ruby Mountain Brewing Co.,NV,MicroBrewery,-114.993124008,41.0689175763,89835,2006,2007,320079502001152,32007950200
1600 E. 8th Ave.,Tampa,1264.0,Tampa Bay Brewing Co.,FL,BrewPub,-82.441744,27.961137,33605,2008,2015,120570039001058,12057003900
108 W. Evergreen Blvd. ,Vancouver,1278.0,Salmon Creek Brewery & Pub ,WA,BrewPub,-122.671611492,45.6288791368,98660,2006,2015,530110425002051,53011042500
3575 Liberty Rd. South,Salem,1278.0,Thompson Brewery & Public House,OR,BrewPub,-123.050676752,44.9040382166,97302,2010,2015,410470021011013,41047002101
121 E. Midland Ave.,Woodland Park,1296.0,Woodland Park Brewing Co.,CO,BrewPub,-105.052648,38.994297,80863,2010,2015,081190101041047,08119010104
516 Elm St.,Trinidad,1296.0,Trinidad Brewing Co.,CO,MicroBrewery,-104.5013,37.1708,81082,2007,2009,080710005001011,08071000500
4 N. Weinbach Ave.,Evansville,1314.0,Turoni's Pizzery & Brewery,IN,BrewHouse,-87.5291838566,37.9772695131,47711,2011,2015,181630003002010,18163000300
1859 Mountain Rd.,Stowe,1314.0,Shed Restaurant & Brewery,VT,BrewPub,-72.7115208141,44.4735405444,5672,2006,2015,500159536003014,50015953600
4350 Waialo Rd.,Port Allen,1347.0,Kauai Island Brewery & Grill,HI,BrewPub,-159.58697,21.901316,96705,2013,2015,150070407005025,15007040700
9400 Kaumualii Highway,Waimea,1347.0,Waimea Brewing Co.,HI,BrewPub,-159.675325155,21.9595592443,96796,2007,2012,150070409003005,15007040900
6810 Caratoke Hwy,Grandy,1357.0,Weeping Radish Eco Farm & Brewery,NC,BrewPub,-75.870982,36.219132,27939,2012,2015,370531104021017,37053110402
North Caratoke Hwy (bt. James Wy & Buster Newbern),Jarvisburg,1357.0,Weeping Radish Brewery & Bavarian Restaurant,NC,BrewPub,-75.861915,36.17786,27947,2009,2011,370531104022006,37053110402
2030 Main St.,Ferndale,1365.0,Whatcom Brewing @ the Frank-n-Stein,WA,BrewPub,-122.5912,48.8467,98248,2007,2010,530730105024013,53073010502
161 E. Bay St. ,Charleston,1365.0,Southend Brewery & Smokehouse ,SC,BrewPub,-79.9273032615,32.778264858,29401,2006,2015,450190002001019,45019000200
27746 McBean Pkwy,Santa Clarita,1377.0,Wolf Creek Restaurant & Brewing Co.,CA,BrewPub,-118.552932196,34.4460724068,91354,2012,2015,060379201101011,06037920110
147 W. Broadway ,Salt Lake City,1377.0,Squatter's Pub Brewery (SLC Brewing Co.),UT,BrewPub,-111.894924337,40.7623129436,84101,2006,2015,490351025001038,49035102500
1999 Citracado Parkway ,Escondido,1396.0,Stone Brewing Co.,CA,MicroBrewery,-117.1189785,33.112150019,92029,2006,2015,060730203072051,06073020307
209 West Holland Ave.,Alpine,1396.0,Edelweiss Brewery & Restaurant,TX,BrewPub,-103.662458673,30.3572826442,79830,2007,2008,480439504002015,48043950400
223-301 N. Franklin St.,Watkins Glen,1418.0,Crooked Rooster Brewpub,NY,BrewPub,-76.8738591671,42.3811861649,14891,2011,2015,360979504002028,36097950400
160 Flynn Ave. ,Burlington,1418.0,Switchback Brewing Company ,VT,MicroBrewery,-73.219794363,44.4558518566,5401,2006,2015,500070010002008,50007001000
100 Highland Park Village,Dallas,1419.0,Stampede Brewing Co.,TX,MicroBrewery,-96.804877,32.835905,75205,2010,2010,481130198002004,48113019800
320 S. Clinton St. ,Syracuse,1419.0,Syracuse Suds Factory ,NY,BrewPub,-76.1537953353,43.0486289239,13202,2006,2015,360670032001040,36067003200
220 E. Broadway Blvd.,Tucson,1419.0,Thunder Canyon Brewery Restaurant & Pub,AZ,BrewPub,-110.966426,32.221276,85701,2014,2015,040190001001004,04019000100
100 N. Pagosa Blvd.,Pagosa Springs,1448.0,Pagosa Brewing Co.,CO,MicroBrewery,-107.079995871,37.2556694406,81147,2007,2008,080079742003037,08007974200
118 N. Pagosa Blvd.,Pagosa Springs,1448.0,Pagosa Brewing Co.,CO,MicroBrewery,-107.078971,37.255176,81147,2009,2015,080079742003037,08007974200
65 N. San Pedro St. ,San Jose,1448.0,Tied House Cafe & Brewery ,CA,BrewPub,-121.893937338,37.3362011218,95113,2006,2009,060855008001013,06085500800
3272 E. Pine Ave.,Meridian,1459.0,Ram Restaurant & Brewery,ID,BrewPub,-116.352703571,43.612449806,83642,2007,2015,160010103211016,16001010321
279 Springfield Ave.,Berkeley Heights,1459.0,Trap Rock Restaurant & Brewery,NJ,BrewPub,-74.4348849233,40.6890708669,7922,2006,2015,340390382025005,34039038202
6 E. Dexter Plaza,Pearl River,1463.0,Defiant Brewing Co.,NY,MicroBrewery,-74.0230679512,41.0595016752,10965,2007,2015,360870127003003,36087012700
186 Fountain St. ,Providence,1463.0,Trinity Brewhouse & Restaurant,RI,BrewPub,-71.4168467631,41.8219705224,2903,2006,2015,440070008001083,44007000800
200 N. Main St.,Las Vegas,1464.0,Triple 7 Restaurant & Brewery,NV,BrewPub,-115.145708273,36.1730091174,89125,2006,2015,320030007003032,32003000700
99 Castleton St.,Pleasantville,1464.0,Captain Lawrence Brewing Co.,NY,MicroBrewery,-73.7908944322,41.1279780509,10570,2007,2012,361190122005050,36119012200
1920 Shattuck Ave. ,Berkeley,1465.0,Triple Rock Brewery & Alehouse,CA,BrewPub,-122.269106428,37.8735329803,94704,2006,2015,060014224002010,06001422400
2204 NE Alberta St,Portland,1465.0,"Mash Tun, The",OR,BrewPub,-122.642602466,45.5589029334,97211,2007,2015,410510032002001,41051003200
512 Ramsay Way,Kent,1469.0,Ram Restaurant & Brewery,WA,BrewPub,-122.234929993,47.3831199931,98032,2007,2015,530330292031063,53033029203
58 Broad St.,Lyndonville,1469.0,Trout River Brewing Co.,VT,MicroBrewery,-72.001219517,44.5204597846,5851,2006,2015,500059573002041,50005957300
219 Lawn St. #B,Martinsburg,1471.0,Mountaineer Brewing Co.,WV,MicroBrewery,-77.9513,39.4643,25405,2008,2014,540039715002000,54003971500
480 Williamsport Pike,Martinsburg,1471.0,Mountaineer Brewing Co.,WV,MicroBrewery,-77.9526,39.479,25401,2007,2007,540039713004066,54003971300
2138 Hamilton Rd.,Okemos,1472.0,Tuba Charlie's Brewpub @ Travelers Club,MI,BrewPub,-84.4289363066,42.7170061284,48864,2006,2013,260650049011037,26065004901
1 Nelson Blvd.,Thomas,1472.0,Mountain State Brewing Co.,WV,MicroBrewery,-79.4985176296,39.1422086409,26292,2010,2015,540939652001117,54093965200
Route 32 & Nelson Blvd.,Thomas,1472.0,Mountain State Brewing Co.,WV,MicroBrewery,-79.4985176296,39.1422086409,26292,2007,2009,540939652001117,54093965200
711 SW Ankeny St. ,Portland,1475.0,Tugboat Brewing Company ,OR,BrewPub,-122.677498819,45.5226035012,97205,2006,2015,410510106001002,41051010600
"10051 Old Grove Rd., Suite B",San Diego,1475.0,Ballast Point Brewing Co.,CA,MicroBrewery,-117.1112,32.8988,92131,2007,2015,060730170225014,06073017022
617 Great Basin Blvd.,Ely,1478.0,White Pine Brewing Co.,NV,MicroBrewery,-114.8735,39.2516,89301,2007,2015,320339702002063,32033970200
6404 Redwing Rd. ,Bethesda,1478.0,Tupper's Hop Pocket Brewing Company ,MD,MicroBrewery,-77.1273465304,38.973441206,20817,2006,2006,240317059021004,24031705902
4 N. Weinbach,Evansville,1480.0,Turoni's Pizza & Brewery,IN,BrewPub,-87.5291838566,37.9772695131,47711,2006,2010,181630003002010,18163000300
1640 W. Redstone Center Dr.,Park City,1480.0,Red Rock Brewing Co.,UT,BrewPub,-111.541485786,40.7201522702,84098,2007,2015,490439643071018,49043964307
402 Ingalls St.,Santa Cruz,1481.0,Santa Cruz Mountain Brewing,CA,MicroBrewery,-122.0475,36.9586,95060,2007,2015,060871012001012,06087101200
3755 Southern Blvd. ,Rio Rancho,1481.0,Turtle Mountain Brewing Co.,NM,BrewPub,-106.662745336,35.2417870575,87124,2006,2015,350430107152021,35043010715
237 Forrest Hills Dr.,Kingston,1484.0,Skytop Steakhouse & Brewing Co.,NY,BrewPub,-74.0392,41.9527,12401,2007,2011,361119515004068,36111951500
516 2nd St. S.,Twin Falls,1484.0,Twin Falls Brewing Co./Mugger's Brewpub,ID,BrewPub,-114.472477683,42.5520967226,83301,2006,2006,160830011003077,16083001100
4210 Kennett Pike,Greenville,1485.0,Twin Lakes Brewery,DE,MicroBrewery,-75.602327218,39.7847625436,19807,2006,2015,100030119002000,10003011900
282 Keswick Rd.,Glenside,1485.0,G.G. Brewers,PA,BrewPub,-75.1548,40.0964,19038,2007,2013,420912026032013,42091202603
277 N. Keswick Ave.,Glenside,1485.0,G G Brewers Brewing & Sir Winston's Pub,PA,BrewPub,-75.147376,40.106229,19038,2014,2015,420912017052006,42091201705
3201 Walnut St. ,Boulder,1488.0,Twisted Pine Brewing Company ,CO,MicroBrewery,-105.251276509,40.0203170801,80307,2006,2015,080130122034024,08013012203
3406 Merchant Ct.,Wilmington,1488.0,Azalea Coast Brewing,NC,MicroBrewery,-77.8754281998,34.313896672,28405,2007,2011,371290116032007,37129011603
17225 N. Dallas Pkwy ,Addison,1490.0,Two Rows Restaurant & Brewery ,TX,BrewPub,-96.8286822723,32.9849015661,75001,2006,2010,481130136161002,48113013616
1188 E. Champlain Dr.,Fresno,1490.0,Sequoia Brewing Co.,CA,BrewPub,-119.7569,36.8672,93720,2007,2015,060190055163002,06019005516
711 Central Expressway S,Allen,1491.0,Two Rows Restaurant & Brewery ,TX,BrewPub,-96.6808933652,33.0915936103,75002,2006,2015,480850315061063,48085031506
25383 Madison Ave.,Murrietta,1491.0,Murrietta Pizza & Brewing Co.,CA,BrewPub,-117.1971,33.5542,92562,2007,2008,060650498002001,06065049800
506 Highway 12,Rio Vista,1492.0,White Water Brewing Co.,CA,MicroBrewery,-121.6927,38.1606,94571,2007,2007,060952535003006,06095253500
5500 Greenville Ave. ,Dallas,1492.0,Two Rows Restaurant & Brewery ,TX,BrewPub,-96.7691601435,32.8530541605,75206,2006,2008,481130079092007,48113007909
416 N. Salsipuedes St.,Santa Barbara,1493.0,Telegraph Brewing Co.,CA,MicroBrewery,-119.6877,34.4224,93103,2012,2014,060830009001017,06083000900
418 N. Salsipuedes St.,Santa Barbara,1493.0,Telegraph Brewing Co.,CA,Brewery,-119.6877,34.4224,93103,2015,2015,060830009001017,06083000900
416 North Salsipuedes St.,Santa Barbara,1493.0,Telegraph Brewing Co.,CA,BrewPub,-119.6877,34.4224,93103,2007,2011,060830009001017,06083000900
2400 University Blvd. ,Houston,1493.0,Two Rows Restaurant & Brewery ,TX,BrewPub,-95.414967548,29.7151027089,77005,2006,2010,482014120002033,48201412000
48 Sanford Dr.,Gorham,1494.0,Sebago Brewing Co.,ME,Brewery,-70.396424,43.679212,04083,2015,2015,230050040011026,23005004001
48 Sanford Dr.,Sanford,1494.0,Sebago Brewing Co.,ME,MicroBrewery,-70.3966,43.6812,04083,2007,2014,230050040011027,23005004001
318 W. Fletcher St.,Alpena,1495.0,Fletcher Street Brewing Co.,MI,BrewPub,-83.4321,45.0665,49707,2007,2008,260070004003024,26007000400
1025 Owen St.,Lake Mills,1495.0,Tyranena Brewing Co.,WI,MicroBrewery,-88.895284253,43.0867717484,53551,2006,2015,550551005002013,55055100500
124 W. Fletcher St.,Alpena,1495.0,Fletcher Street Brewing Co.,MI,BrewPub,-83.430058,45.064724,49707,2009,2015,260070004003024,26007000400
10466 Town Center Dr. ,Westminster,1503.0,BJ's Brewhouse,CO,BrewHouse,-105.07386446,39.8867882128,80021,2007,2015,080590098271005,08059009827
17070 W. Center Rd.,Omaha,1503.0,Upstream Brewing Company ,NE,BrewPub,-96.1818909645,41.2329531026,68130,2006,2015,310550074511006,31055007451
514 S. 11th St. ,Omaha,1504.0,Upstream Brewing Company ,NE,BrewPub,-95.9303739608,41.2553349585,68102,2006,2015,310550018002033,31055001800
127 Elm St.,Milford,1504.0,Pennichuck Brewing Co.,NH,MicroBrewery,-71.6591,42.836,03055,2007,2009,330110162012001,33011016201
157 W. Adams St.,Stockton,1505.0,Valley Brewing Co.,CA,MicroBrewery,-121.300100006,37.9727796611,95204,2006,2014,060770013004001,06077001300
3010 S. Hulen St.,Fort Worth,1505.0,Covey Restaurant & Brewery,TX,BrewPub,-97.3877,32.7073,76109,2007,2010,484391054032012,48439105403
1727 Park Ave.,St. Louis,1506.0,Square One Brewery,MO,BrewPub,-90.2102,38.6166,63104,2007,2015,295101274002031,29510127400
267 E. Swedesford Rd. ,Wayne,1506.0,Valley Forge Brewing Company ,PA,BrewPub,-75.4270524142,40.0728958061,19087,2006,2006,420293001083006,42029300108
22113 US  HWY 6 & 19,Venango,1507.0,Sprague Farm & Brew Works,PA,BrewPub,-80.10561,41.779505,16440,2010,2015,420391102011078,42039110201
22019 US  HWY 6 & 19,Venango,1507.0,Sprague Farm & Brew Works,PA,BrewPub,-80.1131,41.7711,16440,2007,2009,420391102011096,42039110201
237 Union St.,Schenectady,1507.0,"Van Dyck, The",NY,BrewPub,-73.9449771033,42.8164377021,12305,2006,2015,360930335002005,36093033500
144 College St. ,Burlington,1508.0,Vermont Pub and Brewery ,VT,BrewPub,-73.2140370429,44.477254949,5401,2006,2015,500070010001020,50007001000
10690 N De Anza Blvd.,Cupertino,1508.0,BJ's Brewhouse,CA,BrewHouse,-122.0322,37.3317,95014,2007,2015,060855081012004,06085508101
13 W. 7th St.,Holland,1509.0,Via Maria,MI,BrewPub,-86.1080723961,42.791344688,49423,2006,2008,261390249002019,26139024900
20 Market Pl.,Baltimore,1509.0,Rams Head Tavern ,MD,BrewPub,-76.6068,39.2889,21202,2007,2008,245100401001047,24510040100
615 High St.,Portsmouth,1511.0,Alt Platz Brewing Co.,VA,BrewPub,-76.3041,36.8352,23704,2007,2008,517402109001023,51740210900
119 S. Front St.,Marquette,1511.0,Vierling Restaurant & Marquette Harbor Brewery,MI,BrewPub,-87.3928018948,46.5432171233,49855,2006,2015,261030001002023,26103000100
118 Walnut St.,Montclair,1512.0,Egan & Sons,NJ,BrewPub,-74.2121,40.8175,07042,2007,2015,340130166001013,34013016600
234 W. Dallas St.,Dallas,1512.0,Viking Brewing Co.,WI,MicroBrewery,-91.8152605032,45.2592193097,54733,2006,2015,550050009005064,55005000900
175 State Rd. E.,Westminster,1517.0,Wachusett Brewing Co.,MA,MicroBrewery,-71.8712230811,42.5584252185,1473,2006,2015,250277081003038,25027708100
1945 NW Quimby St.,Portland,1517.0,Lucky Labrador Beer Hall,OR,BrewPub,-122.6915,45.5335,97209,2007,2015,410510050001049,41051005000
32295 Route 20,Oak Harbor,1519.0,Flyers Restaurant & Brewery,WA,BrewPub,-122.652,48.2992,98277,2007,2015,530299707001003,53029970700
19400 Kaumualii Highway,Waimea,1519.0,Waimea Brewing Co.,HI,BrewPub,-159.675325155,21.9595592443,96796,2006,2006,150070409003005,15007040900
3410 Sassafras St. ,Pittsburgh,1521.0,Wainwright Brewing ,PA,BrewPub,-79.965423868,40.4616182974,15201,2006,2006,420030603001033,42003060300
2 Independent Dr.,Jacksonville,1521.0,Cellar Grille Tavern,FL,BrewPub,-81.6583,30.3252,32202,2007,2007,120310172001215,12031017200
117 E. 11th St.,Hays,1523.0,Lb. Brewing Co. & Gella's Diner,KS,BrewPub,-99.33,38.8721,67601,2007,2015,200510729003069,20051072900
240 SW First St.,Stevenson,1523.0,Walking Man Brewing & Public House,WA,BrewPub,-121.885042799,45.6922070648,98648,2006,2015,530599503001033,53059950300
11905 Gateway Blvd. West,El Paso,1525.0,BJ's Brewhouse,TX,BrewHouse,-106.3063,31.7227,79936,2010,2015,481410043093019,48141004309
11905 Gateway Boulevard West,El Paso,1525.0,BJ's Brewhouse,TX,BrewHouse,-106.3063,31.7227,79936,2007,2009,481410043093019,48141004309
250 Main St.,Park City,1525.0,Wasatch Brew Pub,UT,BrewPub,-111.494526568,40.6417618133,84060,2006,2015,490439644021030,49043964402
130 S. Lincoln St.,Port Angeles,1526.0,Peaks Brew Pub,WA,BrewPub,-123.4321,48.118,98362,2007,2014,530090009001003,53009000900
256 Moody St. ,Waltham,1526.0,Watch City Brewing Co.,MA,BrewPub,-71.2366039279,42.3718724396,2453,2006,2014,250173685001002,25017368500
631 Main St.,Alamosa,1528.0,San Luis Valley Brewing Co.,CO,BrewPub,-105.8661,37.4683,81101,2007,2015,080039602002039,08003960200
1101 N. Water St. ,Milwaukee,1528.0,Water Street Brewery ,WI,BrewPub,-87.9113675265,43.0445526972,53202,2006,2015,550790144001008,55079014400
625 3rd St. #D,Greeley,1531.0,Crabtree Brewing Co.,CO,MicroBrewery,-104.6874,40.4314,80634,2007,2015,081230007012012,08123000701
4785 Lake Forest Dr. ,Blue Ash,1531.0,Watson Bros. Bistro & Brewery ,OH,BrewPub,-84.3774568061,39.2508195262,45242,2006,2006,390610235221001,39061023522
416 South 12th St.,Omaha,1534.0,Jobber's Canyon Restaurant & Brewery,NE,BrewPub,-95.9319,41.2564,68103,2007,2008,310550018002026,31055001800
400 E. 1st St. ,Los Angeles,1534.0,Weiland Brewery Restaurant ,CA,BrewPub,-118.239107637,34.0490706786,90012,2006,2014,060372062002001,06037206200
113 River Bend Lane,Hailey,1537.0,River Bend Brewing Co.,ID,MicroBrewery,-114.3471,43.5955,83333,2007,2014,160139602002088,16013960200
1291 University Ave.,Morgantown,1537.0,West Virginia Brewing Co.,WV,BrewPub,-79.9577434289,39.6306301935,26505,2006,2015,540610101022013,54061010102
51 Dow Hwy (Route 236),Eliot,1538.0,Shipyard Brew Pub,ME,BrewPub,-70.7726,43.1314,03903,2007,2008,230310370003025,23031037000
28 Levesque Dr. (Route 236),Eliot,1538.0,Shipyard Brew Pub,ME,BrewPub,-70.7726,43.1314,03903,2009,2015,230310370003025,23031037000
35900 Industrial Way,Sandy,1541.0,Karlsson Brewing Co.,OR,BrewPub,-122.2959,45.4038,97055,2007,2008,410050234013023,41005023401
801 S. Ann St. ,Baltimore,1541.0,Wharf Rat / Oliver Breweries,MD,BrewPub,-76.5912010348,39.2826616063,21231,2006,2012,245100203003002,24510020300
12568 SW Main St.,Tigard,1542.0,Max's on Fanno Creek,OR,BrewPub,-122.7746,45.429,97223,2007,2015,410670308014000,41067030801
206 W. Pratt St. ,Baltimore,1542.0,Wharf Rat / Oliver Breweries,MD,BrewPub,-76.6178196381,39.2866115885,21201,2006,2015,245100401001109,24510040100
2234 Main St.,Ferndale,1543.0,Whatcom Brewery,WA,MicroBrewery,-122.60257267,48.8484230353,98248,2006,2006,530730105012015,53073010501
557 East Bay Street,Charleston,1543.0,Charleston Brewing Co.,SC,MicroBrewery,-79.9312,32.7922,29403,2007,2008,450190009001016,45019000900
836 N. Russell St. ,Portland,1546.0,White Eagle Saloon,OR,BrewPub,-122.674978725,45.540702964,97227,2006,2015,410510023031011,41051002303
47160 Spruce Haven St.,Kenai,1546.0,Kassik's Kenai Brew Stop,AK,MicroBrewery,-151.311,60.6638,99611,2007,2015,021220002003026,02122000200
4270 N Oracle Rd.,Tucson,1548.0,BJ's Brewhouse,AZ,BrewHouse,-110.9781,32.2841,85705,2007,2015,040190045102008,04019004510
929 N. Russell St. ,Portland,1548.0,Widmer Brewery,OR,BrewPub,-122.676112651,45.540977078,97227,2006,2015,410510023031012,41051002303
329 Main St.,Evansville,1553.0,Little Cheers Restaurant & Pub,IN,BrewPub,-87.5719,37.9712,47708,2007,2009,181630018001073,18163001800
189 Ewell Rd.,Williamsburg,1553.0,Williamsburg Brewing Co.,VA,MicroBrewery,-76.7324996716,37.3207779258,23188,2006,2015,511990510003028,51199051000
4057 Erie St. ,Willoughby,1555.0,Willoughby Brewing Company ,OH,BrewPub,-81.4063031505,41.6413291597,44094,2006,2015,390852014001008,39085201400
1115 W. Sample Street,South Bend,1555.0,Nine G Brewing Co.,IN,MicroBrewery,-86.2672,41.665,46619,2007,2008,181410027001049,18141002700
1680 E Waterloo Rd.,Akron,1559.0,Hoppin' Frog Brewery,OH,MicroBrewery,-81.4673,41.0259,44306,2007,2015,391535038001012,39153503800
139 N. Canyon St.,West Yellowstone,1559.0,Wolfpack Brewing Co.,MT,BrewPub,-111.099677311,44.6580133028,59758,2006,2010,300310015001080,30031001500
135 Main St.,North Woodstock,1560.0,"Woodstock Inn, Station & Brewery",NH,BrewPub,-71.6866862672,44.0322243105,3262,2006,2015,330099605001016,33009960500
1799 W. 5th Ave. #127,Columbus,1560.0,Cowtown Brewing Co.,OH,MicroBrewery,-83.0547,39.9893,43212,2007,2008,390490019022004,39049001902
22646 Woodward Ave. ,Ferndale,1561.0,Woodward Avenue Brewery ,MI,BrewPub,-83.1333907905,42.4590807247,48220,2006,2015,261251734004000,26125173400
8148 Main St.,Garrettsville,1561.0,Garrett's Mill and Tavern,OH,BrewPub,-81.096758,41.28418,44231,2007,2015,391336001031018,39133600103
17625 Detroit Rd.,Lakewood,1562.0,Pug Mahone's Pub and Eatery,OH,BrewPub,-81.8278907,41.4810992,44107,2011,2011,390351608001007,39035160800
1634 18th St. ,Denver,1562.0,Wynkoop Brewing Company ,CO,BrewPub,-104.998341757,39.7531780614,80202,2006,2015,080310017013002,08031001701
17621 Detroit Rd.,Lakewood,1562.0,Pug Mahone's Pub and Eatery,OH,BrewPub,-81.818833,41.484805,44107,2007,2010,390351609001002,39035160900
5051 Eastpointe Dr.,Medina,1563.0,Brown Derby Roadhouse,OH,BrewPub,-81.8004,41.1371,44256,2007,2010,391034080021000,39103408002
2439 Amber St. ,Philadelphia,1563.0,Yards Brewing Company ,PA,MicroBrewery,-75.1269982718,39.9828225918,19125,2006,2007,421010161001002,42101016100
1200 Clinton St. ,Nashville,1564.0,Yazoo Brewing Company ,TN,MicroBrewery,-86.7944888617,36.1650471113,37203,2006,2010,470370144001002,47037014400
"Pier 39, 100 39th St.",Astoria,1564.0,Rogue Ale House & Restaurant,OR,BrewHouse,-123.7981,46.1934,97103,2007,2015,410079503004003,41007950300
950 Kimball Lane,Verona,1565.0,Gray's Tied House,WI,BrewPub,-89.5196,42.9845,53593,2007,2015,550250137001027,55025013700
2123 1st Ave. N.,Billings,1565.0,Yellowstone Valley Brewing Co.,MT,BrewPub,-108.497562011,45.7862720556,59101,2006,2015,301110002003081,30111000200
280 S. Coast Highway,Laguna Beach,1566.0,BJ's Brewhouse,CA,BrewHouse,-117.7836,33.542,92651,2007,2015,060590626051024,06059062605
3446 Pheasant Meadow Dr.,O'Fallon,1566.0,Yippie-ie-O Grill,MO,BrewPub,-90.6963995917,38.7458714897,63366,2006,2006,291833111242022,29183311124
105 E. State St.,Hastings,1570.0,Walldorff Brewpub & Bistro,MI,BrewPub,-85.2877,42.6489,49058,2007,2015,260150113003009,26015011300
900 Wendell Ct.,Atlanta,1570.0,Zuma Brewing Co.,GA,MicroBrewery,-84.5203034261,33.7677221699,30336,2006,2006,131210078051003,13121007805
105 E. Jefferson Ave.,Kirkwood,1571.0,Wm. D Alandale Brewing Co.,MO,BrewPub,-90.4062,38.5823,63122,2007,2015,291892186001004,29189218600
40 Van Dyke St.,Brooklyn,1571.0,Six Point Craft Ales,NY,MicroBrewery,-74.0117387823,40.6737521705,11231,2006,2015,360470053004005,36047005300
1740 Route 228,Cranberry Township,1572.0,Hereford & Hops Restaurant & Brewpub,PA,BrewPub,-80.0846,40.6855,16066,2007,2008,420199123041031,42019912304
800 W. Diamond Ave.,Gaithersburg,1572.0,Dogfish Head Alehouse,MD,BrewPub,-77.2200665108,39.1455401608,20878,2006,2015,240317007061017,24031700706
3330 Pilot Knob Road,Eagan,1574.0,Granite City Food & Brewery ,MN,BrewPub,-93.1671040095,44.8376214618,55121,2006,2015,270370607262042,27037060726
3200 Tejon St.,Denver,1574.0,Northstar Restaurant & Brewery,CO,BrewPub,-105.0112,39.7621,80211,2007,2009,080310004022010,08031000402
310 S. Main St.,Ketchum,1577.0,Trail Creek Pub,ID,BrewHouse,-114.3643,43.6807,83340,2007,2008,160139603001166,16013960300
173 W. Main St.,Springerville,1577.0,Wild Weede Brewery,AZ,BrewPub,-109.284404112,34.1328666975,85938,2006,2009,040019705013035,04001970501
107 E. Toughnut St.,Tombstone,1578.0,Helldorado Brewing,AZ,MicroBrewery,-110.069669833,31.7127488083,86638,2006,2007,040030004001339,04003000400
516 Hansen St. South,Twin Falls,1578.0,Trail Creek Brewing Co.,ID,MicroBrewery,-114.46045,42.5612,83301,2007,2010,160830011003006,16083001100
"State Hwy 63, 1.5 miles n. of Hwy 50",Pecos,1579.0,Abbey Beverage Co.,NM,MicroBrewery,-105.735407649,35.5817828932,87552,2006,2010,350490108001088,35049010800
9151 First St.,Baroda,1579.0,Round Barn Brewery & Public House,MI,Brewery,-86.485208,41.953138,49101,2015,2015,260210110002024,26021011000
10983 Hills Rd.,Baroda,1579.0,"Round Barn Winery, Distillery, Brewery",MI,MicroBrewery,-86.4573,41.9055,49101,2007,2014,260210110003033,26021011000
804 E. Midland St.,Bay City,1580.0,Lumber Barons' Charcoal Grill & Brewpub,MI,BrewPub,-83.8983,43.6019,48706,2007,2015,260172866003026,26017286600
101 E. College Ave.,Silver City,1580.0,Silver City Brewing Co.,NM,MicroBrewery,-108.275912374,32.7743069065,88062,2006,2009,350179644002042,35017964400
3020 Water St.,Bay City,1581.0,Tri-City Brewing Co.,MI,MicroBrewery,-83.8651,43.6088,,2007,2011,260172865001026,26017286500
209 West Holland Avenue ,Alpine,1581.0,Edelweiss Brewery & Restaurant,TX,BrewPub,-103.662458673,30.3572826442,79830,2006,2006,480439504002015,48043950400
3020 N. Water St.,Bay City,1581.0,Tri City Brewing Co.,MI,MicroBrewery,-83.866711,43.608177,48708,2012,2015,260172865001026,26017286500
221 Garland St.,Traverse City,1584.0,Right Brain Brewery @ Salon Saloon,MI,MicroBrewery,-85.626505,44.765394,49864,2008,2015,260555515003038,26055551500
225 E. 16th St.,Traverse City,1584.0,Right Brain Brewery,MI,MicroBrewery,-85.620485,44.749266,49864,2013,2015,260555514002008,26055551400
6681 W. Beardsley Rd.,Glendale,1584.0,Oggi's Pizza and Brewing Co.,AZ,BrewPub,-112.201652527,33.6673628992,85308,2006,2015,040136159001003,04013615900
15546 County Hwy. B,Hayward,1585.0,Old Hayward Eatery & Brewpub,WI,BrewPub,-91.4693890601,46.0046949926,54843,2006,2014,551131003002115,55113100300
359 Metropolitan Ave.,Brooklyn,1585.0,Spuyten Duyvil,NY,BrewPub,-73.9559,40.7142,11211,2007,2007,360470519002003,36047051900
700 Penn St.,Reading,1586.0,"Stoudt's ""Under the Ice"" Pub",PA,BrewPub,-75.9237384856,40.334952936,19602,2006,2015,420110001003016,42011000100
533 NE F St.,Grants Pass,1586.0,Wild River Pub & Publick House,OR,BrewHouse,-123.322,42.4387,97526,2007,2015,410333605004035,41033360500
2530 Parkway,Pigeon Forge,1587.0,Smoky Mountain Brewery,TN,BrewPub,-83.5774,35.8057,37863,2006,2015,471550810002061,47155081000
11641 Rancho Rd.,Adelanto,1587.0,Jergensen Brewing,CA,MicroBrewery,-117.4121,34.5575,92301,2007,2007,060710091141019,06071009114
6900 El Camino Real,Atascadero,1588.0,Hoover's 101,CA,BrewPub,-120.665846,35.487336,93422,2007,2013,060790125022018,06079012502
37 Corey Rd.,Hancock,1588.0,John Harvard's Brew House ,MA,BrewPub,-73.2939362526,42.5561862515,1237,2006,2015,250039351002059,25003935100
1635 Industrial Park Ave,Redlands,1589.0,Babe's Slim Pig N's Bar-B-Que and Alehouse,CA,BrewPub,-117.2098,34.0644,92374,2006,2009,060710078001066,06071007800
10750 Stockdale Hwy.,Bakersfield,1589.0,BJ's Brewhouse,CA,BrewHouse,-119.1215,35.3499,93309,2007,2015,060290028061037,06029002806
1200 Roseville Parkway,Roseville,1590.0,BJ's Restaurant and Brewery,CA,BrewPub,-121.276144981,38.7744785564,95678,2006,2015,060610226001016,06061022600
2205 Fairview Ave.,Brentwood,1590.0,Nocturnal Brewing Co.,CA,MicroBrewery,-121.7233,37.956,94513,2007,2008,060133032031010,06013303203
3229 Durfee Ave.,El Monte,1591.0,Skyscraper Brewing Co.,CA,MicroBrewery,-118.0122,34.0617,91732,2007,2012,060374333021031,06037433302
19835 E. Walnut Dr. N,Industry,1591.0,Skyscraper Brewing Co.,CA,MicroBrewery,-117.869896,33.997366,91789,2013,2015,060374033031092,06037403303
1150 El Camino Real,San Bruno,1591.0,BJ's Restaurant and Brewery,CA,BrewPub,-122.4153,37.627,94066,2006,2015,060816041013015,06081604101
13200 Kirkham Way,Poway,1592.0,Lightning Brewery,CA,MicroBrewery,-117.0452,32.9361,92064,2006,2015,060730170492029,06073017049
14442 E. Cedar Ave.,Aurora,1592.0,BJ's Brewhouse,CO,BrewHouse,-104.8201,39.713,80012,2007,2015,080050810003020,08005081000
211 E. Trinity Place,Decatur,1594.0,Twain's Billiards and Tap,GA,BrewPub,-84.2945,33.7725,30030,2007,2015,130890226002034,13089022600
208 Wabash St.,Michigan City,1594.0,Shoreline Brewery & Restaurant,IN,BrewPub,-86.9062,41.7197,46360,2006,2015,180910430002062,18091043000
2231 Distribution Circle,Silver Spring,1595.0,Hook & Ladder Brewing Co.,MD,MicroBrewery,-77.049696,39.006839,20910,2009,2009,240317028004020,24031702800
8131 Georgia Ave.,Silver Spring,1595.0,Fire Station 1 Restaurant & Brewing Co.,MD,BrewPub,-77.026148,38.991469,20910,2011,2013,240317025001021,24031702500
190 5th St.,Benton Harbor,1596.0,"Livery, The",MI,BrewPub,-86.4535,42.1182,49022,2006,2015,260210004002029,26021000400
314 S Patton Ave.,Springfield,1596.0,Hickok's Steakhouse & Brewery,MO,BrewPub,-93.2932,37.2081,65806,2007,2009,290770001001028,29077000100
300 6th St.,Calumet,1597.0,Michigan House Caf√© & Brewpub,MI,BrewPub,-88.4538,47.2455,49913,2006,2015,260610003002023,26061000300
1001 N. 102nd St.,Omaha,1597.0,Granite City Food & Brewery ,NE,BrewPub,-96.0717,41.268,68114,2007,2015,310550074451007,31055007445
6785 Enterprise Dr.,Douglas,1598.0,Saugatuck Brewing Co.,MI,MicroBrewery,-86.2094378471,42.6316144102,49406,2006,2008,260050308002046,26005030800
13999 S. Virginia St.,Reno,1598.0,BJ's Restaurant and Brewery,NV,BrewPub,-119.7428,39.3953,89511,2007,2015,320310032031003,32031003203
117 Chestnut St.,Philadelphia,1599.0,Triumph Brewing Co.,PA,BrewPub,-75.1434,39.9482,19106,2008,2015,421010010021000,42101001002
355 E. Kalamazoo Ave.,Kalamazoo,1599.0,Bell's Eccentric Caf√©,MI,BrewPub,-85.5788,42.2941,49007,2006,2015,260770002011029,26077000201
4015 St. Elmo Ave.,Chattanooga,1600.0,Bend Brewing LLC,TN,MicroBrewery,-85.3283,35.0097,37409,2007,2008,470650018001038,47065001800
4611 N. M37 Highway,Middleville,1600.0,Middle Villa Inn,MI,BrewPub,-85.4701,42.7136,49333,2006,2014,260150103002042,26015010300
25333 W. 12 Mile Rd.,Southfield,1601.0,Etouffee,MI,BrewPub,-83.2952,42.5008,48034,2006,2006,261251609003003,26125160900
201 E. Interstate 20,Arlington,1601.0,BJ's Brewhouse,TX,BrewHouse,-97.110558,32.679443,76018,2007,2015,484391115253034,48439111525
1001 Fairview Ave. N.,Seattle,1604.0,Stix Billiards & Brewhouse,WA,BrewPub,-122.3321,47.6278,98109,2007,2008,530330066001031,53033006600
63 W. Market St.,Corning,1604.0,Market Street Brewing Co. & Restaurant,NY,BrewPub,-77.0604,42.1447,14830,2006,2015,361019626001013,36101962600
72 West Towne Mall,Madison,1605.0,Granite City Food & Brewery ,WI,BrewPub,-89.5036,43.0546,53719,2007,2015,550250004051019,55025000405
34 W. Main St.,Fredonia,1605.0,Ellicottville Brewing Co.,NY,BrewPub,-79.3325,42.4393,14063,2006,2015,360130358003016,36013035800
2309 Eggert Rd.,Tonawanda,1606.0,Buffalo Tap Room & Grill,NY,BrewPub,-78.8255,42.981,14150,2006,2015,360290079042006,36029007904
6760 El Camino Real,Atascadero,1606.0,Molly Pitcher Brewing Co.,CA,BrewPub,-120.667024,35.487644,93422,2013,2015,060790125022028,06079012502
8404 Warren Parkway #534,Frisco,1608.0,Stampede Brewing Co.,TX,MicroBrewery,-96.812,33.1087,75034,2006,2009,480850305052034,48085030505
557 William Latham Dr.,Bourbonnais,1608.0,Brickstone Brewery Restaurant,IL,BrewPub,-87.8864,41.1621,60914,2007,2015,170910120003026,17091012000
1483 Duane St.,Astoria,1609.0,Fort George Brewery & Public House,OR,BrewPub,-123.8273,46.1885,97103,2008,2015,410079502002011,41007950200
2231 State Highway 6,Sugar Land,1609.0,BJ's Restaurant and Brewery,TX,BrewPub,-95.6192064285,29.5974352097,77478,2006,2015,481576716011017,48157671601
8 4th St.,Hood River,1610.0,Double Mountain Brewery and Taproom,OR,BrewPub,-121.514496,45.710132,97031,2008,2015,410279503001045,41027950300
10440 Florida Ave.,Hayward,1610.0,Angry Minnow Restaurant & Brewery,WI,BrewPub,-91.4892,46.0105,54843,2006,2015,551131003002083,55113100300
937 SE 12th Ave.,Ontario,1611.0,Beer Valley Brewing,OR,MicroBrewery,-116.9539,44.0155,97914,2007,2015,410459704005010,41045970400
782 N. Main St.,Oconto Falls,1611.0,Falls Brewing Co.,WI,MicroBrewery,-88.1529,44.8828,54154,2006,2011,550831012001030,55083101200
4000 Vassar Dr. NE,Albuquerque,1613.0,Il Vicino Brewing Co. Tap Room,NM,MicroBrewery,-106.615,35.1255,87107,2006,2010,350010034002005,35001003400
357 Price Pl.,Madison,1613.0,Great Dane Pub & Brewing Co.,WI,BrewPub,-89.4525,43.0699,53705,2007,2015,550250003001012,55025000300
111 S. Murphy Ave.,Sunnyvale,1614.0,Firehouse Grill & Brewery,CA,BrewPub,-122.0299,37.3773,94086,2006,2015,060855086021018,06085508602
2405 1st Avenue North,Billings,1614.0,Angry Hanks Taproom,MT,BrewPub,-108.5009,45.7845,59101,2007,2015,301110004023022,30111000402
2151 Salvio St.,Concord,1615.0,E.J. Phair Brewing Co. & Alehouse,CA,BrewPub,-122.0341,37.9779,94520,2006,2015,060133280001008,06013328000
400 Grand Ave.,Las Vegas,1615.0,Rough Rider Brewery,NM,BrewPub,-105.2141,35.5954,87701,2008,2010,350479574001017,35047957400
1460 Bethlehem Pike,North Wales,1616.0,Iron Hill Brewery & Restaurant ,PA,BrewPub,-75.2247,40.2069,19454,2006,2015,420912005052009,42091200505
501 Derek Pl.,Roseville,1616.0,Roseville Brewing Co.,CA,MicroBrewery,-121.298163,38.765805,95678,2013,2015,060610210032004,06061021003
115 St. Paul St.,Burlington,1618.0,American Flatbread Taproom-Burlington Hearth,VT,BrewPub,-73.2157444954,44.4767960265,5401,2006,2015,500070010001026,50007001000
"11970 Borman Dr., Suite 250",St. Louis,1618.0,Hill Brewing Co.,MO,MicroBrewery,-90.44,38.6938,63146,2007,2009,291892150031014,29189215003
418 S. Florissant Rd.,Ferguson,1618.0,Ray Hill's Brew House,MO,BrewPub,-90.302561,38.73875,63135,2010,2015,291892127003006,29189212700
2020 Hamilton Place Blvd.,Chattanooga,1620.0,Big River Grille & Brewing Works ,TN,BrewPub,-85.1617,35.0359,37421,2007,2015,470650114462001,47065011446
470 Market Place,San Ramon,1620.0,Hop Yard American Alehouse & Grill,CA,BrewPub,-121.9505,37.7629,94583,2006,2014,060133451112001,06013345111
55 Emerald Industrial Park Rd.,Ponderay,1793.0,Laughing Dog Brewing,ID,MicroBrewery,-116.538502,48.300305,83852,2008,2012,160179502006015,16017950200
1109 Fontaine Dr.,Ponderay,1793.0,Laughing Dog Brewing,ID,MicroBrewery,-116.546428,48.297458,83852,2013,2015,160179502006038,16017950200
17925A 59th Ave NE,Arlington,1811.0,Skookum Brewery,WA,MicroBrewery,-122.151013,48.159316,98223,2014,2015,530610535091012,53061053509
19529 17th Drive NE,Arlington,1811.0,Skookum Brewery (temporarily closed),WA,MicroBrewery,-122.206553,48.175679,98223,2008,2013,530610531011003,53061053101
3400 Harbor Ave SW #115,Seattle,1812.0,Schooner Exact Brewing Co.,WA,MicroBrewery,-122.370628,47.573128,98126,2008,2008,530330099004033,53033009900
3901 1st Ave. South,Seattle,1812.0,Schooner Exact Brewing Co.,WA,MicroBrewery,-122.334187,47.568821,98108,2012,2015,530330093003126,53033009300
21 White Heat Lane,Bethel,1830.0,Shipyard Brew Haus @ White Cap Lodge,ME,BrewPub,-70.791687,44.403099,04261,2008,2009,230179659002038,23017965900
21 White Heat Lane,Newry,1830.0,White Cap Lodge Brew Haus @ Sunday River Ski Resort,ME,BrewHouse,-70.846946,44.469259,04261,2010,2015,230179651002049,23017965100
2425 W. Memorial Rd.,Oklahoma City,1833.0,BJ's Brewhouse,OK,BrewHouse,-97.556371,35.609902,73134,2008,2015,401091083153007,40109108315
330 Ed Noble Pkwy.,Norman,1833.0,BJ's Brewhouse,OK,BrewHouse,-97.485994,35.214411,73072,2008,2015,400272015083017,40027201508
1600 Coburg Rd. # 4,Eugene,1834.0,BJ's Brewhouse,OR,BrewHouse,-123.067951,44.08023,97401,2008,2013,410390029021018,41039002902
1080 Valley River Way,Eugene,1834.0,BJ‚Äôs Restaurant & Brewhouse,OR,BrewHouse,-123.102471,44.067434,97401,2014,2015,410390029041010,41039002904
115 Joe Nuxhall Way,Cincinnati,1845.0,Moerlein Lager House,OH,BrewPub,-84.508319,39.09598,45202,2013,2015,390610265002096,39061026500
Main St. & Mehring Way,Cincinnati,1845.0,Moerlein Lager House @ Smale Riverfront Park,OH,BrewPub,-84.508319,39.09598,45202,2012,2012,390610265002096,39061026500
1055 Madera St.,Eugene,1855.0,Oakshire Brewing,OR,MicroBrewery,-123.140966,44.072944,97402,2009,2015,410390042001022,41039004200
"1574 Coburg Road, Box 226",Eugene,1855.0,Willamette Brewery,OR,MicroBrewery,-123.068378,44.079542,97401,2008,2008,410390029021018,41039002902
1st St NW & Marble Ave.,Albuquerque,1871.0,Marble Brewery,NM,MicroBrewery,-106.6464,35.0925,87102,2009,2009,350010027001081,35001002700
111 Marble Ave. NW,Albuquerque,1871.0,Marble Brewery,NM,MicroBrewery,-106.6464,35.0925,87102,2010,2015,350010027001081,35001002700
574-580 N. Cameron St.,Winchester,1893.0,Virginia Brewing Co.,VA,MicroBrewery,-78.161081,39.191482,22601,2009,2010,518400001001012,51840000100
536-590 North Cameron St.,Winchester,1893.0,Virginia Brewing Co.,VA,MicroBrewery,-78.161081,39.191482,22601,2008,2008,518400001001012,51840000100
"6220 Leesburg Pike, Seven Corners Shopping Center",Falls Church,1903.0,Dogfish Head Alehouse,VA,BrewHouse,-77.151803,38.867171,22044,2010,2015,510594515012007,51059451501
6363 Seven Corners Shopping Center,Falls Church,1903.0,Dogfish Head Alehouse,VA,BrewHouse,-77.1984,38.8665,22042,2008,2009,510594502001012,51059450200
325 W. 3rd Ave.,Kettle Falls,1905.0,Northern Ales,WA,MicroBrewery,-118.0602814,48.6106622,99141,2011,2015,530659501003004,53065950100
118 Center Ave.,Northport,1905.0,Northern Ales,WA,MicroBrewery,-117.777931,48.917611,99157,2008,2010,530659501001117,53065950100
2120 Porterfield Way,Upland,1916.0,Dale Bros. Brewery,CA,MicroBrewery,-105.550567,38.997934,91786,2013,2015,080930005001085,08093000500
1495 W. 9th St.,Upland,1916.0,Dale Bros. Brewery,CA,MicroBrewery,-117.678031,34.096137,91786,2008,2012,060710008233016,06071000823
16279 Highway 101 South,Brookings-Harbor,1930.0,Wild River Pizza,OR,BrewHouse,-124.2348,42.1311,97415,2008,2013,410159503012044,41015950301
16279 Highway 101 South,Brookings,1930.0,Wild River Pizza,OR,BrewHouse,-124.2348,42.1311,97415,2014,2015,410159503012044,41015950301
124 W. Broadway St.,Butte,1946.0,Quarry Brewing @ the Grand Hotel,MT,MicroBrewery,-112.53849,46.013436,59701,2013,2015,300930001004021,30093000100
45 West Galena St.,Butte,1946.0,Quarry Brewing,MT,MicroBrewery,-112.536397,46.012166,59701,2008,2012,300930001004027,30093000100
557 N. Mill St.,Aspen,1965.0,Aspen Brewing Co.,CO,MicroBrewery,-106.817582,39.194168,81611,2009,2011,080970004011032,08097000401
304 E. Hopkins Ave.,Aspen,1965.0,Aspen Brewing Co.,CO,MicroBrewery,-106.820522,39.190049,81611,2012,2015,080970004022010,08097000402
7020 Easy Wind Dr.,Austin,1974.0,Black Star Co-op Pub & Brewery,TX,BrewPub,-97.750462,30.377992,78757,2011,2015,484530017071003,48453001707
N. Lamar Blvd. and St. Johns Ave. (Midtown Commons),Austin,1974.0,Black Star Co-op Pub & Brewery,TX,BrewPub,-97.733673,30.35322,78757,2010,2010,484530015011001,48453001501
3438 East Lake Business,Palm Harbor,1981.0,Lagerhaus Brewery & Grill,FL,BrewPub,-82.708026,28.060911,34685,2010,2015,121030273262017,12103027326
3438 East Lake Rd.,Palm Harbor,1981.0,Lagerhaus Brewery & Grill,FL,BrewPub,-82.694517,28.096794,34685,2008,2008,121030273101029,12103027310
62 Maple St.,Danvers,1984.0,Cody Brewing Co. Ale House,MA,BrewPub,-70.937012,42.566936,01923,2008,2009,250092112004025,25009211200
36 Main St.,Amesbury,1984.0,Cody Brewing Co.,MA,MicroBrewery,-70.93069,42.857319,01913,2011,2015,250092663003029,25009266300
334 N. 25th Ave.,Phoenix,2016.0,Old World Brewery,AZ,MicroBrewery,-112.113567,33.452284,85009,2011,2015,040131168001039,04013116800
201 W. Lone Cactus Dr.,Phoenix,2016.0,Old World Brewery,AZ,MicroBrewery,-112.076252,33.680694,85027,2009,2010,040136147001061,04013614700
3725 W Sunset Blvd.,Los Angeles,2032.0,Good Microbrew & Grill,CA,BrewPub,-118.278005,34.090756,90026,2008,2010,060371954002012,06037195400
1605 S. College Ave.,Fort Collins,2032.0,Black Bottle Brewery,CO,BrewPub,-105.077069,40.566845,80525,2013,2015,080690009011011,08069000901
1124 NW 51st St.,Oklahoma City,2052.0,COOP Ale Works,OK,MicroBrewery,-97.530535,35.523588,73118,2012,2015,401091001001021,40109100100
1114 NW 51st St.,Oklahoma City,2052.0,COOP Ale Works,OK,MicroBrewery,-97.530322,35.52346,73118,2009,2011,401091001001021,40109100100
9320 15th Ave S.,Seattle,2057.0,Laughing Buddha Brewing Co.,WA,MicroBrewery,-122.313433,47.519316,98108,2008,2011,530330264001029,53033026400
1091 Valentine Ave. SE,Pacific,2057.0,Trade Route Brewing Co.,WA,MicroBrewery,-122.248695,47.248581,98047,2010,2015,530530733013033,53053073301
1812 Ferdinand Ct.,Santa Rosa,2060.0,Russian River Brewing Co.,CA,MicroBrewery,-122.70957,38.422045,95404,2009,2011,060971514021010,06097151402
2401 Edwards St.,Granite City,2060.0,Jacobsmeyer Tavern,IL,BrewPub,-90.131527,38.704949,62040,2013,2015,171194001024010,17119400102
200 Willard St.,Wilmington,2073.0,Wolf Beer Co.,NC,MicroBrewery,-77.945643,34.214868,28401,2011,2014,371290113002032,37129011300
3505 N. Kerr Rd.,Wilmington,2073.0,Wolf Beer Co.,NC,MicroBrewery,-77.915177,34.288629,28405,2010,2010,371290115004019,37129011500
4700 Ohio Ave. South,Seattle,2107.0,Two Beers Brewing Co.,WA,MicroBrewery,-122.338128,47.560571,98134,2011,2015,530330093003188,53033009300
819 N. 49th St.,Seattle,2107.0,Two Beers Brewing Co.,WA,MicroBrewery,-122.348264,47.6641,98103,2009,2010,530330049001012,53033004900
3028-3034 Village Park Dr.,Plover,2111.0,O'so Brewing Co. / O'so Tap House,WI,MicroBrewery,-89.523419,44.452788,54467,2013,2015,550979607011079,55097960701
1812 Post Rd.,Plover,2111.0,O'so Brewing Co.,WI,MicroBrewery,-89.547093,44.471046,54467,2009,2012,550979607012059,55097960701
451 S. High St. #B,Akron,2144.0,Ohio Brewing Co.,OH,MicroBrewery,-81.52218,41.073122,44311,2012,2013,391535068001043,39153506800
222 S. Main St.,Akron,2144.0,Ohio Brewing Co. Pub & Grille,OH,BrewPub,-81.520444,41.07925,44308,2009,2011,391535083011026,39153508301
717 E. Bridge St.,Plainwell,2167.0,Old Mill Brewpub & Grill,MI,BrewPub,-85.631512,42.442868,49080,2014,2015,260050321001010,26005032100
760 Harmon Ave.,Columbus,2167.0,Hoster Brewing Co.,OH,MicroBrewery,-83.016064,39.944383,43223,2009,2011,390490051001012,39049005100
7000 Windsor Rd.,Windsor,2196.0,Old Redwood Brewing Co.,CA,MicroBrewery,-122.816811,38.523303,95492,2013,2015,060971538012071,06097153801
445 St. Paul St.,Rochester,2196.0,High Falls Brewing Co.,NY,MicroBrewery,-77.614077,43.164524,14605,2009,2011,360550092001014,36055009200
1309 Jefferson St.,Lynchburg,2202.0,Jefferson Street Brewery @ Waterstone,VA,BrewPub,-79.137755,37.412556,24504,2010,2015,516800005001046,51680000500
1312 Commerce St.,Lynchburg,2202.0,Waterstone @ the Craddock Terry Hotel,VA,BrewPub,-79.138122,37.411883,24504,2009,2009,516800005001046,51680000500
200 Mosby's Run,Beech Grove,2203.0,Devil's Backbone Brewing Co.,VA,BrewPub,-78.918486,37.881425,22967,2009,2011,511259502001023,51125950200
200 Mosby's Run,Roseland,2203.0,Devil's Backbone Brewing Co.,VA,BrewPub,-78.919099,37.871219,22967,2012,2015,511259503002000,51125950300
530 Mahoning Ave.,Youngstown,2234.0,Rust Belt Brewing Co.,OH,MicroBrewery,-80.657209,41.102,44502,2009,2014,390998139003000,39099813900
112 W. Commerce St.,Youngstown,2234.0,Rust Belt Brewing Co.,OH,Brewery,-80.6501498,41.1017943,44503,2015,2015,390998137004021,39099813700
315 Importing St. (State Rte 56),Aurora,2280.0,Great Crescent Brewery,IN,MicroBrewery,-84.9013402,39.0570022,47001,2011,2015,180290805002058,18029080500
327 Second St.,Aurora,2280.0,Great Crescent Brewery,IN,MicroBrewery,-84.900248,39.056443,47001,2009,2010,180290805002066,18029080500
155 N. Gibson Rd.,Henderson,2287.0,Joseph James Brewing Co.,NV,MicroBrewery,-115.029585,36.039001,89014,2014,2015,320030051094015,32003005109
155 N. Gibson,Henderson,2287.0,Joseph James Brewing Co.,NV,MicroBrewery,-115.029585,36.039001,89014,2009,2013,320030051094015,32003005109
2705 S. Water St. (SouthSide Works),Pittsburgh,2295.0,Hofbrauhaus Pittsburgh,PA,BrewPub,-79.977854,40.42614,15203,2013,2015,420031702004023,42003170200
SouthSide Works - 2705 S. Water St.,Pittsburgh,2295.0,Hofbrauhaus Pittsburgh,PA,BrewPub,-79.977854,40.42614,15203,2009,2012,420031702004023,42003170200
22410 US Highway 281 North,San Antonio,2313.0,BJ's Brewhouse,TX,BrewHouse,-98.448596,29.6494678,78259,2012,2015,480291219072080,48029121907
22406 US Highway 281 North,San Antonio,2313.0,BJ's Brewhouse,TX,BrewHouse,-98.451682,29.645586,78259,2009,2011,480291219052026,48029121905
13200 Dowell Rd.,Solomons,2322.0,Ruddy Duck Brewery & Grill,MD,BrewPub,-76.456219,38.34938,20688,2010,2014,240098609003005,24009860900
13200 Dowell Rd.,Dowell,2322.0,Ruddy Duck Brewery & Grill,MD,BrewPub,-76.456219,38.34938,20688,2015,2015,240098609003005,24009860900
7840 Doty Rd.,Madison,2323.0,Cellar Rats Brewery / Hop View Brewing,OH,BrewPub,-81.0062885,41.7404639,44057,2015,2015,390852059001016,39085205900
7743 Doty Rd.,Madison,2323.0,Cellar Rats Brewery (at Debonne Vineyards),OH,BrewPub,-81.010245,41.740732,44057,2009,2014,390852059001013,39085205900
525 East Cessna Ave.,Walla Walla,2328.0,Walla Walla Brewers,WA,MicroBrewery,-118.271613,46.087234,99362,2009,2011,530719202002045,53071920200
2900 Griffith St.,Charlotte,2328.0,Triple C Brewing Co.,NC,MicroBrewery,-80.869119,35.200972,28203,2013,2015,371190037002019,37119003700
1420 N. Claremont Blvd. #204C,Claremont,2332.0,Claremont Craft Ales,CA,MicroBrewery,-117.702831,34.108359,91711,2013,2015,060374018001030,06037401800
3804 S.W. 30th Ave.,Fort Lauderdale,2332.0,Gordash Brewing Co.,FL,MicroBrewery,-80.18115,26.074317,33312,2009,2010,120111106003133,12011110600
9118 W. State Road 84,Davie,2332.0,Holy Mackerel Beers @ Stage 84 Taphouse,FL,BrewHouse,-80.2714594,26.102643,33324,2011,2011,120110702071010,12011070207
287 US Highway 1,Tequesta,2338.0,Tequesta Brewing Co./Corner Caf√©,FL,BrewPub,-80.0848941,26.9560136,33469,2011,2015,120990001022030,12099000102
289 US Highway 1,Tequesta,2338.0,Corner Cafe & Brewery,FL,BrewPub,-80.08456,26.958846,33469,2009,2010,120990001022020,12099000102
311 Octavia St.,New Orleans,2343.0,New Orleans Lager and Ale Co.,LA,MicroBrewery,-90.1171,29.916615,70115,2009,2011,220710114001017,22071011400
3001 Tchoupitoulas St.,New Orleans,2343.0,NOLA Brewing Co.,LA,MicroBrewery,-90.080951,29.919847,70130,2012,2015,220710142001013,22071014200
25 Ionia Ave. SW,Grand Rapids,2346.0,HopCat Brewing Co.,MI,BrewPub,-85.670406,42.962348,49503,2011,2015,260810020002005,26081002000
25 Ionia SW,Grand Rapids,2346.0,HopCat Brewing Co.,MI,BrewPub,-85.670406,42.962348,49503,2009,2010,260810020002005,26081002000
684 Commerce St.,Holland,2347.0,New Holland Brewing Co.,MI,Brewery,-86.114154,42.818513,49424,2015,2015,261390222031000,26139022203
690 Commerce St.,Holland,2347.0,New Holland Brewing Co.,MI,MicroBrewery,-86.113379,42.817528,49424,2009,2014,261390222031000,26139022203
311 N. Heritage St.,Kinston,2349.0,Mother Earth Brewing Co.,NC,MicroBrewery,-77.582639,35.262668,28501,2010,2011,371070107002013,37107010700
311 N. Herritage St.,Kinston,2349.0,Mother Earth Brewing Co.,NC,MicroBrewery,-77.582639,35.262668,28501,2012,2015,371070107002013,37107010700
4150 Yancey Rd.,Charlotte,2364.0,Olde Mecklenburg Brewery,NC,BrewPub,-80.881973,35.187442,28217,2015,2015,371190038023021,37119003802
215 Southside Dr.,Charlotte,2364.0,Olde Mecklenburg Brewery,NC,MicroBrewery,-80.880483,35.185672,28217,2009,2015,371190038023031,37119003802
2724 SE Ankeny St.,Portland,2369.0,Coalition Brewing Co.,OR,BrewPub,-122.637976,45.521998,97214,2011,2014,410510020004016,41051002000
2705 SE Ankeny St.,Portland,2369.0,Coalition Brewing Co.,OR,Brewery,-122.638049,45.522376,97214,2015,2015,410510020004007,41051002000
13605 Main St.,Talkeetna,2383.0,Denali Brewing @ Twister Creek Restaurant,AK,BrewPub,-150.113977,62.323298,99676,2009,2010,021700001021027,02170000102
13605 E. Main St.,Talkeetna,2383.0,Denali Brewing @ Twister Creek Restaurant,AK,BrewPub,-150.114123,62.323379,99676,2011,2015,021700001021027,02170000102
227 Broadway,Denver,2387.0,TRVE Brewing Co.,CO,MicroBrewery,-104.987507,39.719849,80203,2013,2015,080310021001011,08031002100
2 Third St. SW,Hickory,2387.0,Olde Hickory Brewery,NC,MicroBrewery,-81.342007,35.731716,28601,2009,2010,370350105011038,37035010501
166 Barbee Rd.,Abita Springs,2393.0,Abita Brewing Co. ,LA,MicroBrewery,-90.055515,30.481436,70420,2011,2015,221030406052006,22103040605
166 Barbee Rd.,Covington,2393.0,Abita Brewing Co. ,LA,MicroBrewery,-90.055515,30.481436,70433,2010,2010,221030406052006,22103040605
208 Pike St.,Covington,2414.0,Red Ear Brewing Co.,KY,BrewPub,-84.513416,39.082518,41011,2012,2013,211170603001021,21117060300
654 Highland Ave.,Fort Thomas,2414.0,Red Ear Brewing @ Vito's Caf√©,KY,BrewPub,-84.461386,39.075744,41075,2010,2011,210370523023006,21037052302
29281 Agoura Rd.,Agoura Hills,2453.0,Ladyface Alehouse & Brasserie,CA,BrewPub,-118.763529,34.143596,91301,2012,2015,060378003261001,06037800326
28281 Agoura Rd.,Agoura Hills,2453.0,Ladyface Alehouse & Brasserie,CA,BrewPub,-118.742281,34.141015,91301,2010,2011,060378003292024,06037800329
5400 N. Clark St.,Chicago,2461.0,Hamburger Mary's,IL,BrewPub,-87.668414,41.97996,60640,2010,2014,170310309002000,17031030900
5402 N. Clark St.,Chicago,2461.0,Andersonville Brewing / Mary's Rec Room,IL,BrewPub,-87.668439,41.980055,60640,2015,2015,170310309002000,17031030900
12337 S. Route 59,Plainfield,2462.0,Limestone Restaurant & Brewery,IL,BrewPub,-88.203403,41.657354,60544,2010,2015,171978803081043,17197880308
36 Bridge St.,Brattleboro,2462.0,Whetstone Station Restaurant & Brewery,VT,BrewPub,-72.556392,42.851352,05301,2014,2015,500259685003000,50025968500
209 Technology Park Ln.,Fuquay Varina,2467.0,Aviator Brewing Co.,NC,MicroBrewery,-78.808539,35.619701,27526,2011,2015,371830532051035,37183053205
5633 Piper Dr.,Fuquay Varina,2467.0,Aviator Brewery Tap House,NC,MicroBrewery,-78.702444,35.621345,27526,2010,2010,371830531102010,37183053110
150 S. Washington St.,Valparaiso,2488.0,Figure Eight Brewing Co.,IN,MicroBrewery,-87.060557,41.466766,46383,2013,2015,181270509001019,18127050900
1555 West Lincolnway,Valparaiso,2488.0,Figure Eight Brewing Co.,IN,MicroBrewery,-87.078752,41.472919,46385,2011,2012,181270506044018,18127050604
1 Industrial Way,Portland,2521.0,Maine Beer Co.,ME,MicroBrewery,-70.3197516,43.7031978,04103,2010,2015,230050021022013,23005002102
525 US Route 1,Freeport,2521.0,Maine Beer Co.,ME,Brewery,-70.121407,43.839144,04032,2015,2015,230050045024011,23005004502
607 Shepherd Lane,Lockland,2548.0,Rivertown Brewing Co.,OH,MicroBrewery,-84.46285,39.23642,45215,2012,2015,390610274004001,39061027400
607 Shepherd Lane,Cincinnati,2548.0,Rivertown Brewing Co.,OH,MicroBrewery,-84.464593,39.23948,45215,2011,2011,390610227004003,39061022700
13005 Fitzhugh Rd. Bldg B,Austin,2557.0,Jester King Craft Brewery,TX,MicroBrewery,-97.999764,30.232337,78736,2013,2015,482090108092017,48209010809
14108 Rountree Ranch Lane,Austin,2557.0,Jester King Craft Brewery,TX,MicroBrewery,-97.796178,30.49438,78717,2011,2012,484910203112003,48491020311
385 Sun Valley Mall,Concord,2561.0,BJ's Restaurant and Brewery,CA,BrewPub,-122.06196,37.967176,94520,2011,2015,060133270005068,06013327000
385 Sunvalley Mall,Concord,2561.0,BJ's Restaurant and Brewery,CA,BrewPub,-122.06196,37.967176,94520,2010,2010,060133270005068,06013327000
150 W. 96th St.,Indianapolis,2571.0,Granite City Food & Brewery,IN,BrewPub,-86.161719,39.927073,46290,2010,2013,180571111023041,18057111102
150 W. 96th St.,Carmel,2571.0,Granite City Food & Brewery,IN,BrewPub,-86.161719,39.927073,46290,2014,2015,180571111023041,18057111102
113 W. 9th St.,Vancouver,2586.0,Mt. Tabor Brewing Co.,WA,MicroBrewery,-122.6723853,45.6279879,98660,2012,2015,530110424001039,53011042400
824 SE 73rd Ave.,Portland,2586.0,Mt. Tabor Brewing Co.,OR,MicroBrewery,-122.587359,45.517306,97215,2011,2011,410510016015008,41051001601
212 W. U.S. 50 Highway,Gunnison,2607.0,Crested Butte Brewing Co.,CO,MicroBrewery,-106.9880678,38.5224901,81230,2010,2011,080519636005047,08051963600
212 W. Highway 50,Gunnison,2607.0,Crested Butte Brewing Co.,CO,BrewPub,-106.93983,38.54221,81230,2012,2013,080519637003058,08051963700
846 E. Main St.,Montrose,2609.0,Horsefly Brewing Co.,CO,BrewPub,-107.872007,38.482777,81041,2011,2015,080859663002018,08085966300
2320 E. Main St.,Montrose,2609.0,Horsefly Brewing Co.,CO,MicroBrewery,-107.8512806,38.4886016,81041,2010,2010,080859664001001,08085966400
856 E. 136th St.,Bronx,2625.0,Bronx Brewery,NY,Brewery,-73.910387,40.80203,10454,2015,2015,360050019003026,36005001900
7 Bruckner Blvd.,New York,2625.0,Bronx Brewery,NY,MicroBrewery,-73.930048,40.808021,10454,2012,2013,360050019001003,36005001900
1500 Beach Blvd.,Jacksonville,2640.0,Engine 15 Brewing Co.,FL,MicroBrewery,-81.6364935,30.3054692,32207,2011,2011,120310006004000,12031000600
1500 Beach Blvd.,Jacksonville Beach,2640.0,Engine 15 Brewing Co.,FL,MicroBrewery,-81.407208,30.288086,32250,2012,2015,120310142043000,12031014204
60 E. San Francisco St.,Santa Fe,2648.0,Marble Brewery Taproom,NM,BrewHouse,-105.9381399,35.6869435,87501,2010,2014,350490004001032,35049000400
"505 Cerrillos Rd., Suite A105",Santa Fe,2648.0,Marble Brewery Taproom,NM,BrewHouse,-105.9447552,35.6824377,87501,2015,2015,350490004001063,35049000400
612 Big Bear Blvd. #523,Columbia,2657.0,Rock Bridge Brewing Co.,MO,MicroBrewery,-92.329867,38.977256,65203,2013,2014,290190014001135,29019001400
1330 E. Prathersville Rd.,Columbia,2657.0,Rock Bridge Brewing Co.,MO,Brewery,-92.319707,39.01477,65202,2015,2015,290190015033032,29019001503
2953 Ridgeway Dr.,Turner,2664.0,Gilgamesh Brewing,OR,MicroBrewery,-123.002392,44.8105199,97392,2011,2012,410470108013019,41047010801
2065 SE Madrona Ave.,Salem,2664.0,Gilgamesh Brewing Campus,OR,BrewPub,-123.018088,44.90557,97302,2013,2015,410470010003058,41047001000
202 S.W. First St.,Corvallis,2691.0,Flat Tail Brewing,OR,BrewPub,-123.2593048,44.5627918,97333,2011,2012,410030106001044,41003010600
202 S.W. 1st St.,Corvallis,2691.0,Flat Tail Brewing Sports Pub & Brewery,OR,BrewPub,-123.2593048,44.5627918,97333,2013,2015,410030106001044,41003010600
67 Portland Rd.,Kennebunk,2705.0,Sebago Brewing Co.,ME,BrewHouse,-70.5307374,43.3962486,04043,2011,2011,230310280023002,23031028002
65 Portland Rd.,Kennebunk,2705.0,Sebago Brewing Co.,ME,BrewHouse,-70.5307374,43.3962486,04043,2012,2015,230310280023002,23031028002
825 S. State St.,Salt Lake City,2715.0,EPIC Brewing Co.,UT,MicroBrewery,-111.887675,40.751162,84111,2012,2015,490351023002010,49035102300
825 South State St.,Salt Lake City,2715.0,EPIC Brewing Co.,UT,MicroBrewery,-111.887675,40.751162,84111,2011,2011,490351023002010,49035102300
200 W. Main St.,Turlock,2719.0,Dust Bowl Brewing Co.,CA,BrewPub,-120.848314,37.49293,95380,2012,2015,060990038032004,06099003803
3100 Spengler Way,Turlock,2719.0,Dust Bowl Brewing Co. (by appt only),CA,MicroBrewery,-120.883729,37.484007,95380,2011,2011,060990037002013,06099003700
2309 Union Blvd.,Bay Shore,2723.0,Great South Bay Brewery,NY,MicroBrewery,-73.227892,40.7308859,11706,2011,2014,361031474014002,36103147401
25 Drexel Dr.,Bay Shore,2723.0,Great South Bay Brewery,NY,Brewery,-73.263494,40.761226,11706,2015,2015,361031459022000,36103145902
372 Morrison Rd.,Columbus,2725.0,Neil House Brewery & Homebrew Supply,OH,MicroBrewery,-82.85502,39.984486,43068,2012,2013,390490092101004,39049009210
6575 E. Livingston Ave.,Reynoldsburg,2725.0,Neil House Brewery & Homebrew Supply,OH,MicroBrewery,-82.819659,39.9432608,43068,2011,2011,390490093861004,39049009386
211 W. 24th St.,Norfolk,2728.0,O'Connor Brewing Co.,VA,Brewery,-76.2862252,36.8701064,23517,2015,2015,517100029002053,51710002900
521 W. 25th St.,Norfolk,2728.0,O'Connor Brewing Co.,VA,MicroBrewery,-76.291437,36.872278,23517,2011,2014,517100027002029,51710002700
301 Seventh St. East,Bradenton,2732.0,Little Giant Brewery,FL,MicroBrewery,-82.556725,27.496749,34208,2014,2015,120810007031007,12081000703
800 17th Ave. West,Bradenton,2732.0,Little Giant Brewery,FL,MicroBrewery,-82.570086,27.484424,34205,2012,2013,120810001033034,12081000103
937 Constitution Blvd. North,Shelton,2732.0,Strangford Lough Brewing Co.,CT,MicroBrewery,-73.1280341,41.3196985,06484,2011,2011,090011106002019,09001110600
22720 El Camino Real,Santa Margarita,2746.0,Dunbar Brewing,CA,MicroBrewery,-120.6129641,35.3887533,93453,2011,2013,060790127023049,06079012702
2200 El Camino Real,Santa Margarita,2746.0,Dunbar Brewing,CA,MicroBrewery,-120.60625,35.392733,93453,2014,2015,060790127023045,06079012702
18970 3rd Ave NE,Poulsbo,2786.0,Valholl Brewing,WA,Brewery,-122.645267,47.735177,98370,2015,2015,530350905013006,53035090501
20186 Front St. NE,Poulsbo,2786.0,Valholl Brewing,WA,MicroBrewery,-122.6505094,47.7459451,98370,2011,2014,530350905012002,53035090501
413 N. 8th St.,Richmond,2797.0,New Boswell Brewing Co. (by appt only),IN,MicroBrewery,-84.8914,39.834122,47374,2011,2012,181770002001040,18177000200
410 N. 10th St.,Richmond,2797.0,New Boswell Brewing Co.,IN,MicroBrewery,-84.889032,39.833745,47374,2013,2015,181770002001042,18177000200
884 Mizzen Lane,Ketchikan,2813.0,Bear Rock Brewing Co.,AK,MicroBrewery,-131.817591,55.472368,99901,2011,2013,021300001004012,02130000100
"2320 Central Ave., Unit F",McKinleyville,2813.0,Humboldt Regeneration,CA,Brewery,-124.100999,40.947635,95519,2015,2015,060230105012020,06023010501
3 South St.,Bernardston,2820.0,Lefty's Brewing Co.,MA,MicroBrewery,-72.5570201,42.6639637,01337,2011,2014,250110402001100,25011040200
301 Wells St.,Greenfield,2820.0,Lefty's Brewing Co.,MA,Brewery,-72.606774,42.601519,01301,2015,2015,250110412001014,25011041200
212 Smith St.,Sitka,2831.0,Baranof Island Brewing Co.,AK,MicroBrewery,-135.3079453,57.0498254,99835,2011,2012,022200001004003,02220000100
215 Smith St.,Sitka,2831.0,Baranof Island Brewing Co.,AK,MicroBrewery,-135.307776,57.050343,99835,2013,2015,022200001004001,02220000100
3200 Leeman Ferry Rd.,Huntsville,2832.0,Straight to Ale Brewing,AL,Brewery,-86.594131,34.69475,35801,2015,2015,010890025012014,01089002501
1300 Meridian St.,Huntsville,2832.0,Straight to Ale Brewing,AL,MicroBrewery,-86.5836984,34.7476164,35801,2011,2014,010890030002026,01089003000
2401 Penn Ave. (Public Market),Pittsburgh,2842.0,East End Brewing Co. Shop in the Strip,PA,BrewHouse,-79.980478,40.453845,15201,2015,2015,420030203001054,42003020300
2100 Smallman St. (Public Market),Pittsburgh,2842.0,East End Brewing Co.,PA,BrewHouse,-80.005979,40.4423162,15222,2011,2014,420030201002024,42003020100
"1052 Horizon Dr., Suite B",Fairfield,2858.0,Heretic Brewing,CA,MicroBrewery,-122.014883,38.273625,94533,2014,2015,060952523161015,06095252316
300 Cumberland St.,Pittsburg,2858.0,Heretic Brewing,CA,MicroBrewery,-121.8822225,38.0331638,94565,2012,2015,060133090002042,06013309000
,San Jose,2879.0,Shizmo Brewing Co. (by appt only),CA,MicroBrewery,-121.894955,37.339386,,2011,2011,060855008001000,06085500800
,San Jose,2879.0,Shizmo Brewing Co. (by appt only),CA,MicroBrewery,-121.894955,37.339386,95128,2013,2013,060855008001000,06085500800
,San Jose,2879.0,Shizmo Brewing Co. (by appt only),CA,MicroBrewery,-121.894955,37.339386,95128,2014,2014,060855008001000,06085500800
,San Jose,2879.0,Shizmo Brewing Co. (by appt only),CA,MicroBrewery,-121.894955,37.339386,95128,2012,2012,060855008001000,06085500800
,San Jose,2879.0,Shizmo Brewing Co. (by appt only),CA,Brewery,-121.894955,37.339386,95128,2015,2015,060855008001000,06085500800
321 Mountain Ave.,Berthoud,2936.0,City Star Brewing,CO,Brewery,-105.078995,40.304884,80513,2015,2015,080690027004001,08069002700
321 Main St.,Berthoud,2936.0,City Star Brewing,CO,MicroBrewery,-105.093271,40.30212,80513,2013,2014,080690027004011,08069002700
657 S. Taylor Ave.,Louisville,2946.0,Crystal Springs Brewing Co.,CO,Brewery,-105.119686,39.9614,80027,2015,2015,080130607002013,08013060700
876 Sunshine Canyon Dr.,Boulder,2946.0,Crystal Springs Brewing Co. (by appt only),CO,MicroBrewery,-105.3032434,40.0246472,80302,2011,2013,080130137013023,08013013701
384 SW Upper Terrace,Bend,2954.0,Old Mill Brew Werks,OR,BrewHouse,-121.310773,44.046569,97702,2012,2014,410170015005078,41017001500
803 SW Industrial Way,Bend,2954.0,Old Mill Brew Werks,OR,BrewPub,-121.318006,44.049954,97702,2015,2015,410170015005073,41017001500
301 Mobile St.,Hattiesburg,2992.0,Southern Prohibition Brewing,MS,BrewPub,-89.290075,31.330373,39401,2014,2015,280350107001025,28035010700
1315 Hardy St.,Hattiesburg,2992.0,Southern Prohibition Brewery in Keg & Barrel,MS,BrewPub,-89.3116241,31.3247995,39401,2011,2013,280350003002004,28035000300
109 Frazier Ave.,Chattanooga,2995.0,Chattanooga Brewing Co.,TN,MicroBrewery,-85.307412,35.062705,37405,2011,2014,470650006001024,47065000600
1804 Chestnut St.,Chattanooga,2995.0,Chattanooga Brewing Co.,TN,Brewery,-85.3147134,35.0360223,37408,2015,2015,470650020001031,47065002000
3225 Ocean Beach Hwy,Longview,2999.0,Parker's Steakhouse & Brewery,WA,BrewPub,-122.968289,46.147992,98632,2011,2012,530150006011003,53015000601
1300 Mount St. Helens Way,Castle Rock,2999.0,Parker's Steakhouse & Brewery,WA,BrewPub,-122.898733,46.287481,98611,2013,2015,530150020021049,53015002002
4155-C Dorchester Rd.,North Charleston,3027.0,Holy City Brewing,SC,MicroBrewery,-80.002189,32.852785,29405,2013,2015,450190039003003,45019003900
4155 Dorchester Rd.,North Charleston,3027.0,Holy City Brewing,SC,MicroBrewery,-80.002189,32.852785,29405,2012,2012,450190039003003,45019003900
22235 Pontiac Trail,South Lyon,3041.0,Witch's Hat Brewing Co.,MI,MicroBrewery,-83.6502094,42.4436367,48178,2012,2014,261251392003004,26125139200
601 S. Lafayette St.,South Lyon,3041.0,Witch's Hat Brewing Co.,MI,Brewery,-83.65031,42.454629,48178,2015,2015,261251394002012,26125139400
14 Blanding Blvd.,Orange Park,3054.0,Pinglehead Brewing @ Brewer's Pizza,FL,BrewPub,-81.7403109,30.1884919,32073,2013,2015,120190303013000,12019030301
14B Blanding Blvd.,Orange Park,3054.0,Brewer's Pizza,FL,BrewPub,-81.7403109,30.1884919,32073,2012,2012,120190303013000,12019030301
2820 1st Ave. N.,St. Petersburg,3074.0,St. Petersburg Brewing Co.,FL,MicroBrewery,-82.6717196,27.7717995,33713,2012,2014,121030219003018,12103021900
544 1st Ave. N.,St. Petersburg,3074.0,St. Petersburg Brewing Co.,FL,Brewery,-82.64105,27.771794,33701,2015,2015,121030215001022,12103021500
33 Tenney Hill Rd.,Blue Hill,3101.0,DeepWater Brewing Co.,ME,BrewPub,-68.5930037,44.411573,04614,2014,2015,230099663003047,23009966300
33 Main St.,Blue Hill,3101.0,Deep Water Brewing Co. @ the Vinery,ME,BrewHouse,-68.5930037,44.411573,04614,2012,2013,230099663003047,23009966300
2029 15th St.,Patterson Township,3114.0,Beaver Brewing Co.,PA,MicroBrewery,-80.3351602,40.7561076,15010,2012,2013,420076010003024,42007601000
1820 7th Ave.,Beaver Falls,3114.0,Beaver Brewing Co.,PA,MicroBrewery,-80.319065,40.758569,15010,2014,2015,420076012003004,42007601200
44 S. Central Ave.,Medford,3123.0,Bricktowne Brewing Co.,OR,BrewPub,-122.8719069,42.3256491,97501,2015,2015,410290001002047,41029000100
118 E. 8th St.,Medford,3123.0,Bricktowne Brewing Co.,OR,BrewPub,-122.872069,42.325385,97504,2012,2014,410290001002046,41029000100
6398 W. 74th St.,Bedford Park,3128.0,5 Rabbit Cerveceria,IL,BrewPub,-87.780654,41.757632,60638,2014,2015,170318209011072,17031820901
3304 N. Knox Ave.,Chicago,3128.0,5 Rabbit Cerveceria,IL,BrewPub,-87.743078,41.940944,60641,2012,2013,170311510022013,17031151002
3008 W. 12th St.,Brooklyn,3148.0,Coney Island Brewing Co.,NY,MicroBrewery,-73.97983,40.575293,11224,2012,2013,360470352001004,36047035200
6 Fairchild Square,Clifton Park,3148.0,Coney Island Beer (brewing @ Shmaltz),NY,MicroBrewery,-73.791954,42.901489,12065,2014,2015,360910625012004,36091062501
2033 N. Center St.,Hickory,3157.0,Loe's Brewing Co.,NC,MicroBrewery,-81.334537,35.759701,28601,2013,2014,370350105012020,37035010501
1048 Harper Ave. NW,Lenoir,3157.0,Eola Beer Co.,NC,BrewPub,-81.542343,35.912819,28645,2015,2015,370270301004013,37027030100
116 Liverpool Ave.,Egg Harbor City,3171.0,Pinelands Brewing Co.,NJ,MicroBrewery,-74.648185,39.529764,08215,2012,2012,340010106003021,34001010600
140 7th Ave.,Little Egg Harbor,3171.0,Pinelands Brewing Co.,NJ,Brewery,-74.342804,39.615915,08087,2015,2015,340297361012055,34029736101
441 W. Bonner Rd.,Wauconda,3198.0,Small Town Brewery,IL,MicroBrewery,-88.150657,42.2777,60084,2012,2013,170978642051059,17097864205
"1000 Brown St., Suite 212",Wauconda,3198.0,Small Town Brewery,IL,MicroBrewery,-88.151442,42.274353,60084,2014,2015,170978642051116,17097864205
1016 7th St NW,Rochester,3207.0,Kinney Creek Brewery,MN,MicroBrewery,-92.478342,44.031073,55901,2013,2015,271090006003019,27109000600
1928 32nd Ave.,Rochester,3207.0,Kinney Creek Brewery,MN,MicroBrewery,-92.50965,44.044142,55901,2012,2012,271090014014044,27109001401
1550 NW 49th St.,Seattle,3239.0,Hilliard's Beer,WA,MicroBrewery,-122.377659,47.6646,98107,2013,2015,530330047002026,53033004700
1550 NW 49th St.,Ballard,3239.0,Hilliard's Beer,WA,MicroBrewery,-122.377659,47.6646,98107,2012,2012,530330047002026,53033004700
33 Hope Lane,Eastsound,3240.0,Island Hoppin' Brewery,WA,MicroBrewery,-122.914886,48.70256,98245,2013,2015,530559601001097,53055960100
82 Lagoon Rd.,Orcas,3240.0,Island Hoppin Brewery,WA,MicroBrewery,-123.009714,48.633058,98245,2012,2012,530559601001009,53055960100
92 Patton Ave.,Asheville,3248.0,Thirsty Monk Pub & Brewery,NC,BrewHouse,-82.555352,35.594197,28801,2015,2015,370210001001027,37021000100
1836 Hendersonville Rd.,Asheville,3248.0,Thirsty Monk South,NC,BrewPub,-82.523908,35.503519,28803,2012,2015,370210022042004,37021002204
26787 Agoura Rd.,Calabasas,3252.0,Wolf Creek Restaurant & Brewing Co.,CA,BrewHouse,-118.707265,34.140001,91302,2012,2014,060378003293014,06037800329
25108 Rye Canyon Loop,Valencia,3252.0,Tasting Room @ Wolf Creek Brewery,CA,Brewery,-118.5800849,34.4541433,91355,2015,2015,060379201071026,06037920107
2238 James St.,Bellingam,3261.0,Kulshan Brewing,WA,MicroBrewery,-122.464711,48.759613,98225,2013,2013,530730005012003,53073000501
2238 James St.,Bellingham,3261.0,Kulshan Brewing,WA,MicroBrewery,-122.464711,48.759613,98225,2014,2015,530730005012003,53073000501
Route 611 / Wiscasset Rd.,Swiftwater,3332.0,Pocono Brewing Restaurant & Tavern,PA,BrewPub,-75.327812,41.085239,18370,2012,2014,420893004012040,42089300401
2092 Pennsylvania 611,Swiftwater,3332.0,Pocono Brewing Restaurant & Tavern,PA,BrewPub,-75.327812,41.085239,18370,2015,2015,420893004012040,42089300401
Walnut Road & Route 329,Watkins Glen,3380.0,Seneca Lodge Craft Brewing,NY,BrewPub,-76.871099,42.36929,14891,2012,2013,360979504001007,36097950400
3600 Walnut Rd/State Rt 419,Watkins Glen,3380.0,Seneca Lodge Craft Brewing,NY,BrewPub,-76.871099,42.36929,14891,2014,2015,360979504001007,36097950400
"1441 W. 46th Ave., Unit 19",Denver,3383.0,Crooked Stave Artisan Beer Project,CO,MicroBrewery,-105.004716,39.780686,80211,2014,2014,080310002021004,08031000202
3350 Brighton Blvd.,Denver,3383.0,Crooked Stave Artisan Beer Project,CO,Brewery,-104.97973,39.768756,80216,2015,2015,080310016001011,08031001600
1900 E. Lincoln Ave. Unit B,Fort Collins,3383.0,Crooked Stave Artisan Beer Project,CO,MicroBrewery,-105.043139,40.583138,80524,2012,2015,080690013061068,08069001306
210 Liberty St. SE,Salem,3416.0,Gilgamesh Brewing Lounge,OR,BrewHouse,-123.039419,44.938796,97301,2013,2014,410470002003045,41047000200
189 Liberty St.,Salem,3416.0,Gilgamesh Brewing Store,OR,BrewHouse,-123.038399,44.940873,97301,2012,2012,410470002002042,41047000200
137 Elmwood St.,Lemont,3456.0,Happy Valley Brewing Co.,PA,MicroBrewery,-77.829505,40.810374,16801,2014,2014,420270117022032,42027011702
137 Elmwood St.,State College,3456.0,Happy Valley Brewing Co.,PA,BrewPub,-77.829505,40.810374,16801,2015,2015,420270117022032,42027011702
2245 3rd St.,San Francisco,3472.0,Triple Voodoo Brewery & Tap Room,CA,Brewery,-122.3884732,37.7611859,94107,2015,2015,060750226001021,06075022600
3145 Geary Blvd. #410,San Francisco,3472.0,Triple Voodoo Brewing Co.,CA,MicroBrewery,-122.45259,37.781727,94118,2012,2013,060750157003015,06075015700
2240 Millennium Way,Enola,3547.0,Pizza Boy Brewing @ Al's of Hampden,PA,BrewPub,-76.969858,40.288729,17025,2014,2015,420410113011004,42041011301
4520 Valley St.,Enola,3547.0,Pizza Boy Brewing @ Al's of Hampden,PA,BrewPub,-76.975215,40.289685,17025,2013,2013,420410113011000,42041011301
93 Emerick St.,Ypsilanti,3592.0,Unity Vibration,MI,MicroBrewery,-83.597334,42.240916,48198,2014,2015,261614108002009,26161410800
214 Oak St.,Ypsilanti,3592.0,Unity Vibration (by appt only),MI,MicroBrewery,-83.606714,42.248063,48198,2013,2013,261614109001009,26161410900
908 SW 4th St.,Oklahoma City,3594.0,Anthem Brewing Co.,OK,Brewery,-97.5283433,35.4610755,73109,2015,2015,401091036021040,40109103602
1354 W. Sheridan Ave.,Oklahoma City,3594.0,Anthem Brewing (brewing @ OKCity Brewing Co.),OK,MicroBrewery,-97.5367,35.466449,73106,2013,2015,401091035001020,40109103500
401 Beltrami Ave. NW Suite A,Bemidji,3633.0,Bemidji Brewing Co.,MN,Brewery,-94.8811479,47.4715932,56601,2015,2015,270074506005028,27007450600
302 Irvine Ave. NW,Bemidji,3633.0,Bemidji Brewing Co. @ Harmony Co-op,MN,MicroBrewery,-94.885393,47.470643,56601,2013,2014,270074506005034,27007450600
1927 S. Curry Pike,Bloomington,3700.0,Cutters Brewing Co.,IN,MicroBrewery,-86.582588,39.148673,47403,2013,2013,181050005012064,18105000501
9973 E. US Highway 36,Avon,3700.0,Cutters Brewing Co.,IN,MicroBrewery,-86.347697,39.763653,46123,2014,2015,180632106063004,18063210606
5865 N Glenwood St.,Garden City,3708.0,Kilted Dragon Brewing,ID,Brewery,-116.2803601,43.6585669,83714,2015,2015,160010024122017,16001002412
9115 W. Chinden Blvd.,Garden City,3708.0,Kilted Dragon Brewing,ID,MicroBrewery,-116.295577,43.655112,83714,2013,2014,160010024101004,16001002410
"2405 Squire Place, Suite 200",Farmers Branch,3789.0,Grapevine Craft Brewery,TX,Brewery,-96.8983269,32.9310392,75234,2015,2015,481130139013001,48113013901
924 Jean St.,Grapevine,3789.0,Grapevine Craft Brewery,TX,MicroBrewery,-97.074396,32.932381,76051,2014,2014,484391137052002,48439113705
63 St. Clair Rd.,Brimfield,3816.0,Tree House Brewing Co.,MA,MicroBrewery,-72.245941,42.126786,01010,2013,2013,250138138021094,25013813802
160 East Hill Rd.,Monson,3816.0,Tree House Brewing Co.,MA,MicroBrewery,-72.28865,42.092056,01057,2014,2015,250138137011000,25013813701
768 S. Cooper St.,Memphis,3829.0,Memphis Made Brewing Co.,TN,Brewery,-89.990789,35.124906,38114,2015,2015,471570066002016,47157006600
768 S. Cooper,Memphis,3829.0,Memphis Made Brewing Co.,TN,MicroBrewery,-89.990789,35.124906,38114,2014,2014,471570066002016,47157006600
43271 Spinks Ferry Rd.,Leesburg,3863.0,Barnhouse Brewery,VA,Brewery,-77.4967099,39.204473,20176,2015,2015,511076103002032,51107610300
13840 Barnhouse Pl,Leesburg,3863.0,Barnhouse Brewery,VA,MicroBrewery,-77.551388,39.23362,20176,2013,2014,511076103001021,51107610300
1909 Second St.,Tillamook,3880.0,De Garde Brewing,OR,Brewery,-123.844458,45.457049,97141,2015,2015,410579605001098,41057960500
1014 Stillwell Ave.,Tillamook,3880.0,De Garde Brewing,OR,MicroBrewery,-123.84607,45.450975,97141,2014,2014,410579605003011,41057960500
415 Grand Ave.,South San Francisco,3980.0,Armstrong Brewing Co.,CA,Brewery,-122.413125,37.655454,94080,2015,2015,060816022002012,06081602200
330 Littlefield Ave.,South San Francisco,3980.0,Armstrong Brewing Co.,CA,MicroBrewery,-122.394398,37.647825,94080,2014,2014,060816023001048,06081602300
10970 South Parker Rd.,Parker,4007.0,Hall Brewing Co.,CO,Brewery,-104.763231,39.517281,80134,2015,2015,080350139051009,08035013905
8530 Vinegaroon Rd.,Parker,4007.0,Hall Brewing Co.,CO,MicroBrewery,-104.697001,39.484998,80138,2014,2014,080350139114006,08035013911
5690 U.S. 31 North,Williamsburg,4021.0,Bravo Zulu Brewing,MI,MicroBrewery,-85.503499,44.769432,49690,2014,2014,260555501021089,26055550102
6060 U.S. 31 North,Williamsburg,4021.0,Bravo Zulu Brewing,MI,Brewery,-85.499405,44.774927,49690,2015,2015,260555501021020,26055550102
5181 N. Glenwood St.,Garden City,4146.0,Crooked Fence Brewing Barrelhouse,ID,BrewPub,-116.279762,43.652303,83714,2015,2015,160010024122017,16001002412
5181 Glenwood,Garden City,4146.0,Crooked Fence Brewing Barrelhouse,ID,BrewPub,-116.279762,43.652303,83714,2014,2014,160010024122017,16001002412
1165 N Stratford Rd.,Moses Lake,4284.0,Ten Pin Brewing Co.,WA,Brewery,-119.277596,47.145058,98837,2015,2015,530250109022032,53025010902
606 W. Broadway,Moses Lake,4284.0,St. Brigid's Brewery,WA,MicroBrewery,-119.285171,47.127956,98837,2014,2015,530250111003002,53025011100
11138-C Treynorth Dr.,Cornelius,4637.0,D9 Brewing Co.,NC,Brewery,-80.8474255,35.4611816,28031,2015,2015,371190064071000,37119006407
"18627 Northline Dr., #E",Cornelius,4637.0,D9 Brewing,NC,MicroBrewery,-80.8533099,35.4585222,28031,2014,2014,371190064071000,37119006407
112 W. Ellison St.,Burleson,4734.0,Old Texas Brewing Co. Grill & Skybar,TX,BrewPub,-97.3213725,32.5421637,76028,2015,2015,482511302073031,48251130207
112 W. Ellison,Burleson,4734.0,Old Texas Brewing Co.,TX,BrewPub,-97.3213725,32.5421637,76028,2014,2014,482511302073031,48251130207
